{
  "type": "FeatureCollection",
  "features": [
    {
      "type": "Feature",
      "properties": {
        "creator": "BRouter-1.7.10",
        "name": "brouter_fastbike-asia-pacific_0",
        "track-length": "32351",
        "filtered ascend": "173",
        "plain-ascend": "-6",
        "total-time": "6419",
        "total-energy": "629031",
        "cost": "46607",
        "messages": [
          ["Longitude", "Latitude", "Elevation", "Distance", "CostPerKm", "ElevCost", "TurnCost", "NodeCost", "InitialCost", "WayTags", "NodeTags", "Time", "Energy"],
          ["131612776", "33236324", "7", "76", "1100", "0", "0", "0", "0", "highway=unclassified surface=asphalt oneway=yes", "", "12", "1276"],
          ["131612783", "33236928", "8", "67", "1100", "0", "92", "0", "0", "highway=unclassified", "", "28", "2804"],
          ["131612786", "33237237", "9", "34", "1100", "0", "0", "0", "0", "reversedirection=yes highway=unclassified", "", "36", "3672"],
          ["131613154", "33237244", "9", "34", "1060", "0", "87", "0", "0", "highway=tertiary surface=asphalt estimated_traffic_class=4 oneway=yes", "", "44", "4489"],
          ["131615801", "33237379", "4", "249", "1100", "0", "0", "20", "0", "highway=unclassified surface=asphalt oneway=yes", "highway=traffic_signals traffic_signals:direction=both traffic_signals=signal", "85", "8600"],
          ["131616474", "33237450", "5", "63", "1100", "0", "2", "0", "0", "highway=unclassified surface=asphalt", "", "94", "9493"],
          ["131618779", "33237927", "7", "221", "1100", "0", "0", "0", "0", "reversedirection=yes highway=unclassified surface=asphalt", "", "128", "12895"],
          ["131620212", "33238243", "15", "139", "1060", "0", "0", "0", "0", "highway=tertiary estimated_traffic_class=4", "", "172", "17239"],
          ["131620375", "33238895", "15", "80", "1060", "0", "37", "20", "0", "reversedirection=yes highway=tertiary estimated_traffic_class=4", "highway=traffic_signals", "194", "19475"],
          ["131620353", "33238974", "15", "9", "1060", "0", "3", "20", "0", "reversedirection=yes highway=tertiary estimated_traffic_class=4", "highway=traffic_signals", "196", "19675"],
          ["131623684", "33239822", "5", "325", "1500", "0", "89", "0", "0", "highway=trunk surface=asphalt oneway=yes", "", "241", "24196"],
          ["131623759", "33239848", "6", "8", "1500", "0", "0", "0", "0", "highway=trunk oneway=yes", "highway=crossing", "242", "24278"],
          ["131623881", "33239889", "6", "12", "1500", "0", "0", "20", "0", "highway=trunk oneway=yes", "highway=traffic_signals traffic_signals=signal", "244", "24422"],
          ["131625537", "33240422", "6", "165", "1500", "0", "0", "20", "0", "highway=trunk oneway=yes", "highway=traffic_signals traffic_signals=signal", "267", "26796"],
          ["131626722", "33240837", "5", "120", "1500", "0", "0", "20", "0", "highway=trunk oneway=yes", "highway=traffic_signals traffic_signals=signal", "284", "28473"],
          ["131628274", "33241398", "2", "157", "1500", "0", "0", "0", "0", "highway=trunk oneway=yes", "highway=crossing crossing=marked", "302", "30298"],
          ["131628516", "33241483", "3", "24", "1500", "0", "0", "20", "0", "highway=trunk oneway=yes", "highway=traffic_signals traffic_signals=signal", "306", "30641"],
          ["131628753", "33241570", "3", "24", "1500", "0", "0", "0", "0", "highway=trunk oneway=yes", "highway=crossing crossing=marked", "310", "31070"],
          ["131630333", "33242148", "5", "161", "1500", "0", "0", "0", "0", "highway=trunk oneway=yes", "highway=crossing", "345", "34571"],
          ["131630422", "33242178", "5", "9", "1500", "0", "0", "20", "0", "highway=trunk oneway=yes", "highway=traffic_signals traffic_signals=signal", "347", "34731"],
          ["131631361", "33242404", "4", "91", "1500", "0", "0", "20", "0", "highway=trunk oneway=yes", "highway=traffic_signals traffic_signals=signal", "361", "36142"],
          ["131633365", "33242336", "5", "188", "1500", "0", "0", "20", "0", "highway=trunk oneway=yes", "highway=traffic_signals traffic_signals=signal", "393", "39352"],
          ["131634182", "33242269", "5", "76", "1500", "0", "0", "0", "0", "highway=trunk oneway=yes", "highway=crossing", "407", "40732"],
          ["131634329", "33242257", "5", "14", "1500", "0", "0", "20", "0", "highway=trunk oneway=yes", "highway=traffic_signals traffic_signals=signal", "409", "40964"],
          ["131634471", "33242245", "5", "13", "1500", "0", "0", "20", "0", "highway=trunk oneway=yes", "highway=traffic_signals traffic_signals=signal", "411", "41179"],
          ["131634720", "33242224", "5", "23", "1500", "0", "0", "0", "0", "highway=trunk oneway=yes", "highway=crossing", "415", "41561"],
          ["131635262", "33242179", "5", "51", "1500", "0", "0", "0", "0", "highway=trunk oneway=yes", "", "424", "42411"],
          ["131635500", "33242160", "5", "22", "1500", "0", "0", "0", "0", "highway=trunk surface=asphalt oneway=yes", "", "427", "42779"],
          ["131636020", "33242107", "6", "49", "1500", "0", "0", "0", "0", "highway=trunk oneway=yes", "", "437", "43747"],
          ["131636277", "33242091", "7", "24", "1500", "0", "0", "0", "0", "highway=trunk surface=asphalt oneway=yes", "", "443", "44363"],
          ["131636302", "33242180", "6", "10", "1090", "0", "76", "0", "0", "highway=tertiary surface=asphalt estimated_traffic_class=5", "highway=stop direction=backward", "445", "44588"],
          ["131636596", "33243241", "6", "121", "1090", "0", "0", "0", "0", "highway=tertiary surface=asphalt estimated_traffic_class=5", "highway=crossing crossing=marked", "469", "46971"],
          ["131636642", "33243407", "6", "19", "1090", "0", "0", "0", "0", "highway=tertiary surface=asphalt estimated_traffic_class=5", "highway=crossing crossing=marked", "473", "47315"],
          ["131637330", "33245372", "4", "227", "1090", "0", "0", "20", "0", "highway=tertiary surface=asphalt estimated_traffic_class=5", "highway=traffic_signals", "505", "50559"],
          ["131638048", "33245228", "3", "69", "1090", "0", "82", "20", "0", "reversedirection=yes highway=tertiary estimated_traffic_class=5", "highway=traffic_signals estimated_crossing_class=0 traffic_signals=signal", "514", "51491"],
          ["131638142", "33245228", "3", "9", "1090", "0", "2", "20", "0", "reversedirection=yes highway=tertiary estimated_traffic_class=5", "highway=traffic_signals estimated_crossing_class=0", "516", "51614"],
          ["131640081", "33245475", "3", "183", "1090", "0", "1", "20", "0", "reversedirection=yes highway=tertiary surface=asphalt estimated_traffic_class=5", "highway=traffic_signals traffic_signals:direction=both traffic_signals=signal", "544", "54490"],
          ["131641331", "33245635", "4", "118", "1090", "0", "0", "20", "0", "reversedirection=yes highway=tertiary surface=asphalt estimated_traffic_class=5", "highway=traffic_signals traffic_signals:direction=both", "567", "56731"],
          ["131645607", "33246180", "3", "403", "1090", "0", "0", "20", "0", "reversedirection=yes highway=tertiary surface=asphalt estimated_traffic_class=5", "highway=traffic_signals traffic_signals=signal", "636", "63615"],
          ["131645704", "33246193", "3", "9", "1090", "0", "0", "20", "0", "reversedirection=yes highway=tertiary surface=asphalt estimated_traffic_class=5", "highway=traffic_signals traffic_signals=signal", "637", "63754"],
          ["131649164", "33246634", "3", "326", "1090", "0", "0", "20", "0", "reversedirection=yes highway=tertiary surface=asphalt estimated_traffic_class=5", "highway=traffic_signals traffic_signals=signal", "692", "69269"],
          ["131653629", "33247204", "7", "421", "1090", "0", "0", "20", "0", "reversedirection=yes highway=tertiary surface=asphalt estimated_traffic_class=5", "highway=traffic_signals traffic_signals=signal", "779", "77912"],
          ["131653845", "33247232", "6", "20", "1090", "0", "0", "20", "0", "reversedirection=yes highway=tertiary surface=asphalt estimated_traffic_class=5", "highway=traffic_signals traffic_signals=signal", "782", "78252"],
          ["131654513", "33247317", "5", "63", "1090", "0", "0", "0", "0", "reversedirection=yes highway=tertiary surface=asphalt estimated_traffic_class=5", "", "791", "79135"],
          ["131657308", "33247673", "5", "264", "1030", "0", "0", "20", "0", "reversedirection=yes highway=tertiary surface=asphalt estimated_traffic_class=3", "highway=traffic_signals traffic_signals:direction=both traffic_signals=signal", "832", "83239"],
          ["131658939", "33247880", "4", "154", "1030", "0", "0", "20", "0", "reversedirection=yes highway=tertiary surface=asphalt estimated_traffic_class=3", "highway=traffic_signals traffic_signals:direction=both traffic_signals=signal", "856", "85666"],
          ["131661143", "33248160", "5", "207", "1030", "0", "0", "20", "0", "reversedirection=yes highway=tertiary surface=asphalt estimated_traffic_class=3", "highway=traffic_signals estimated_crossing_class=0 traffic_signals:direction=both traffic_signals=signal", "895", "89543"],
          ["131669447", "33250205", "4", "807", "1030", "0", "0", "20", "0", "reversedirection=yes highway=tertiary surface=asphalt estimated_traffic_class=3", "highway=traffic_signals traffic_signals:direction=both traffic_signals=signal", "1030", "103046"],
          ["131671588", "33250278", "5", "200", "1030", "0", "0", "20", "0", "reversedirection=yes highway=tertiary surface=asphalt estimated_traffic_class=3", "highway=traffic_signals traffic_signals:direction=both traffic_signals=signal", "1069", "106965"],
          ["131676281", "33250991", "5", "453", "1030", "0", "4", "20", "0", "reversedirection=yes highway=tertiary surface=asphalt estimated_traffic_class=3", "highway=traffic_signals traffic_signals:direction=both traffic_signals=signal", "1149", "114923"],
          ["131679963", "33251426", "2", "354", "1030", "0", "2", "20", "0", "reversedirection=yes highway=tertiary surface=asphalt estimated_traffic_class=3", "highway=traffic_signals traffic_signals:direction=both traffic_signals=signal", "1198", "119887"],
          ["131683253", "33251326", "3", "307", "1030", "0", "0", "20", "0", "reversedirection=yes highway=tertiary surface=asphalt estimated_traffic_class=3", "highway=traffic_signals traffic_signals:direction=both traffic_signals=signal", "1252", "125310"],
          ["131683351", "33253175", "3", "205", "1030", "0", "83", "0", "0", "reversedirection=yes highway=tertiary surface=asphalt estimated_traffic_class=3", "highway=crossing", "1287", "128774"],
          ["131683351", "33253252", "3", "9", "1030", "0", "0", "20", "0", "reversedirection=yes highway=tertiary surface=asphalt estimated_traffic_class=3", "highway=traffic_signals traffic_signals:direction=both traffic_signals=signal", "1289", "128945"],
          ["131683352", "33253352", "3", "11", "1030", "0", "0", "20", "0", "reversedirection=yes highway=tertiary surface=asphalt estimated_traffic_class=3", "highway=crossing crossing=traffic_signals", "1291", "129151"],
          ["131683358", "33254385", "4", "115", "1030", "0", "0", "20", "0", "reversedirection=yes highway=tertiary surface=asphalt estimated_traffic_class=3", "highway=traffic_signals estimated_crossing_class=0 traffic_signals=signal", "1313", "131382"],
          ["131683359", "33254580", "3", "22", "1030", "0", "0", "20", "0", "reversedirection=yes highway=tertiary surface=asphalt estimated_traffic_class=3", "highway=traffic_signals estimated_crossing_class=0 traffic_signals=signal", "1317", "131733"],
          ["131684810", "33254572", "3", "135", "1260", "0", "90", "0", "0", "highway=primary surface=asphalt estimated_traffic_class=4 oneway=yes", "highway=crossing estimated_crossing_class=0", "1339", "133942"],
          ["131684903", "33254572", "3", "9", "1260", "0", "0", "20", "0", "highway=primary surface=asphalt estimated_traffic_class=4 oneway=yes", "highway=traffic_signals estimated_crossing_class=0 traffic_signals=signal", "1340", "134092"],
          ["131686200", "33254533", "2", "121", "1260", "0", "0", "0", "0", "highway=primary surface=asphalt estimated_traffic_class=4 oneway=yes", "estimated_crossing_class=4", "1356", "135689"],
          ["131687544", "33254510", "2", "125", "1260", "0", "0", "0", "0", "highway=primary surface=asphalt estimated_traffic_class=4 oneway=yes", "", "1383", "138405"],
          ["131691740", "33254511", "2", "391", "1260", "0", "0", "0", "0", "highway=primary estimated_traffic_class=4 oneway=yes", "", "1453", "145369"],
          ["131694136", "33254530", "3", "224", "1260", "0", "0", "0", "0", "highway=primary surface=asphalt estimated_traffic_class=4 oneway=yes", "estimated_crossing_class=4", "1488", "148823"],
          ["131694520", "33254554", "3", "36", "1260", "0", "0", "20", "0", "highway=primary surface=asphalt estimated_traffic_class=4 oneway=yes", "highway=traffic_signals estimated_crossing_class=0 traffic_signals=signal", "1493", "149409"],
          ["131694814", "33254572", "4", "27", "1260", "0", "0", "0", "0", "highway=primary surface=asphalt estimated_traffic_class=4 oneway=yes", "estimated_crossing_class=4", "1498", "149909"],
          ["131706935", "33255402", "6", "1132", "1260", "0", "0", "0", "0", "highway=primary surface=asphalt estimated_traffic_class=4 oneway=yes", "", "1700", "170056"],
          ["131707286", "33255425", "5", "33", "1260", "0", "0", "0", "0", "highway=primary estimated_traffic_class=4 oneway=yes", "estimated_crossing_class=3", "1705", "170602"],
          ["131708035", "33255475", "5", "70", "1260", "0", "0", "20", "0", "highway=primary estimated_traffic_class=4 oneway=yes", "highway=traffic_signals estimated_crossing_class=0 traffic_signals=signal", "1716", "171662"],
          ["131708023", "33255312", "4", "18", "1030", "0", "102", "20", "0", "highway=tertiary surface=asphalt estimated_traffic_class=3", "highway=traffic_signals estimated_crossing_class=0 traffic_signals=signal", "1719", "171929"],
          ["131707500", "33249216", "6", "678", "1030", "0", "0", "20", "0", "highway=tertiary surface=asphalt estimated_traffic_class=3", "highway=traffic_signals traffic_signals:direction=both traffic_signals=signal", "1839", "183951"],
          ["131715575", "33248404", "5", "758", "1030", "0", "85", "20", "0", "reversedirection=yes highway=tertiary surface=asphalt estimated_traffic_class=3", "highway=traffic_signals estimated_crossing_class=0 traffic_signals:direction=both traffic_signals=signal", "1962", "196245"],
          ["131721236", "33245806", "8", "601", "1000", "0", "7", "20", "0", "reversedirection=yes highway=tertiary surface=asphalt estimated_traffic_class=2", "highway=traffic_signals traffic_signals:direction=both traffic_signals=signal", "2082", "208304"],
          ["131721327", "33245764", "8", "10", "1000", "0", "0", "20", "0", "reversedirection=yes highway=tertiary surface=asphalt estimated_traffic_class=2", "highway=traffic_signals traffic_signals:direction=both traffic_signals=signal", "2084", "208460"],
          ["131729302", "33242335", "7", "835", "1000", "0", "0", "0", "0", "reversedirection=yes highway=tertiary surface=asphalt estimated_traffic_class=2", "highway=crossing", "2224", "222520"],
          ["131729510", "33242258", "7", "21", "1000", "0", "0", "20", "0", "reversedirection=yes highway=tertiary surface=asphalt estimated_traffic_class=2", "highway=traffic_signals traffic_signals:direction=both traffic_signals=signal", "2227", "222800"],
          ["131729655", "33242206", "7", "15", "1000", "0", "0", "0", "0", "reversedirection=yes highway=tertiary surface=asphalt estimated_traffic_class=2", "highway=crossing", "2229", "223006"],
          ["131741958", "33238307", "8", "1229", "1000", "0", "0", "0", "0", "reversedirection=yes highway=tertiary surface=asphalt estimated_traffic_class=2", "", "2443", "244350"],
          ["131743234", "33237840", "6", "129", "1200", "0", "0", "0", "0", "reversedirection=yes highway=residential surface=asphalt", "", "2460", "246027"],
          ["131742793", "33236953", "8", "108", "1100", "0", "102", "0", "0", "highway=unclassified", "railway=level_crossing", "2480", "248125"],
          ["131742940", "33235547", "8", "157", "1100", "0", "0", "0", "0", "highway=unclassified", "", "2512", "251246"],
          ["131741950", "33234747", "11", "137", "1100", "0", "41", "0", "0", "reversedirection=yes highway=unclassified", "", "2533", "253373"],
          ["131743128", "33233614", "4", "173", "1000", "0", "107", "20", "0", "highway=tertiary estimated_traffic_class=2 oneway=yes", "highway=traffic_signals traffic_signals=signal", "2561", "256199"],
          ["131744436", "33233356", "2", "125", "1000", "0", "1", "0", "0", "highway=tertiary estimated_traffic_class=2 oneway=yes", "", "2578", "257926"],
          ["131745430", "33233207", "4", "94", "1000", "0", "0", "0", "0", "highway=tertiary surface=asphalt estimated_traffic_class=2 oneway=yes", "", "2590", "259118"],
          ["131747649", "33232859", "4", "210", "1000", "0", "0", "20", "0", "highway=tertiary estimated_traffic_class=2 oneway=yes", "highway=traffic_signals traffic_signals=signal", "2626", "262674"],
          ["131747653", "33232763", "4", "11", "1000", "0", "69", "20", "0", "reversedirection=yes highway=tertiary estimated_traffic_class=2", "highway=traffic_signals traffic_signals=signal", "2628", "262838"],
          ["131748757", "33228974", "7", "440", "1000", "0", "8", "20", "0", "highway=tertiary estimated_traffic_class=2 oneway=yes", "highway=traffic_signals estimated_crossing_class=0 traffic_signals=signal", "2710", "271114"],
          ["131749380", "33227938", "11", "129", "1130", "0", "0", "0", "0", "highway=secondary estimated_traffic_class=3 oneway=yes", "estimated_crossing_class=2", "2742", "274282"],
          ["131749835", "33227178", "8", "94", "1130", "0", "0", "0", "0", "highway=secondary estimated_traffic_class=3 oneway=yes", "estimated_crossing_class=2", "2758", "275908"],
          ["131750397", "33226245", "6", "116", "1130", "0", "0", "20", "0", "highway=secondary estimated_traffic_class=3 oneway=yes", "highway=traffic_signals estimated_crossing_class=0 traffic_signals=signal", "2773", "277381"],
          ["131750657", "33225787", "6", "56", "1130", "0", "1", "0", "0", "highway=secondary estimated_traffic_class=3 oneway=yes", "", "2781", "278176"],
          ["131751366", "33224676", "7", "140", "1130", "0", "1", "0", "0", "highway=secondary surface=asphalt estimated_traffic_class=3", "estimated_crossing_class=2", "2808", "280910"],
          ["131752640", "33222585", "12", "261", "1130", "0", "0", "20", "0", "highway=secondary surface=asphalt estimated_traffic_class=3", "highway=traffic_signals estimated_crossing_class=0 traffic_signals:direction=both traffic_signals=signal", "2858", "285918"],
          ["131752661", "33222516", "12", "8", "1130", "0", "1", "0", "0", "highway=secondary surface=asphalt estimated_traffic_class=3", "estimated_crossing_class=0", "2860", "286086"],
          ["131752718", "33222253", "11", "30", "1130", "0", "0", "0", "0", "highway=secondary surface=asphalt estimated_traffic_class=3", "estimated_crossing_class=2", "2869", "286955"],
          ["131752736", "33221432", "9", "91", "1130", "0", "1", "0", "0", "highway=secondary surface=asphalt estimated_traffic_class=3", "estimated_crossing_class=2", "2886", "288686"],
          ["131754403", "33218406", "11", "376", "1130", "0", "1", "0", "0", "highway=secondary surface=asphalt estimated_traffic_class=3", "estimated_crossing_class=2", "2962", "296276"],
          ["131755258", "33217296", "14", "147", "1130", "0", "0", "0", "0", "highway=secondary surface=asphalt estimated_traffic_class=3", "estimated_crossing_class=2", "2994", "299462"],
          ["131756110", "33214912", "19", "277", "1130", "0", "0", "0", "0", "highway=secondary surface=asphalt estimated_traffic_class=3", "estimated_crossing_class=2", "3061", "306202"],
          ["131756241", "33213372", "19", "171", "1130", "0", "0", "0", "0", "highway=secondary surface=asphalt estimated_traffic_class=3", "estimated_crossing_class=2", "3103", "310386"],
          ["131756827", "33210925", "21", "276", "1130", "0", "0", "0", "0", "highway=secondary surface=asphalt estimated_traffic_class=3", "estimated_crossing_class=2", "3147", "314772"],
          ["131756861", "33210857", "23", "8", "1130", "0", "0", "0", "0", "highway=secondary surface=asphalt estimated_traffic_class=3", "estimated_crossing_class=2", "3149", "315029"],
          ["131757193", "33208867", "27", "223", "1130", "0", "1", "20", "0", "highway=secondary surface=asphalt estimated_traffic_class=3", "highway=traffic_signals traffic_signals:direction=both traffic_signals=signal", "3230", "323051"],
          ["131757201", "33208761", "27", "12", "1130", "0", "0", "0", "0", "highway=secondary surface=asphalt estimated_traffic_class=3", "estimated_crossing_class=0", "3232", "323264"],
          ["131757203", "33208718", "27", "5", "1130", "0", "0", "0", "0", "highway=secondary surface=asphalt estimated_traffic_class=3", "", "3233", "323352"],
          ["131757221", "33208339", "27", "42", "1100", "0", "0", "0", "0", "highway=secondary surface=asphalt estimated_traffic_class=2", "", "3240", "324086"],
          ["131757223", "33208301", "26", "4", "1100", "0", "0", "0", "0", "highway=secondary estimated_traffic_class=2", "estimated_crossing_class=2", "3241", "324228"],
          ["131763287", "33189595", "140", "2424", "1100", "0", "31", "0", "0", "highway=secondary estimated_traffic_class=2", "", "4461", "446210"],
          ["131771099", "33175993", "174", "1675", "1100", "0", "0", "0", "0", "highway=secondary surface=paved estimated_traffic_class=2", "", "4999", "500061"],
          ["131771141", "33175858", "171", "15", "1100", "0", "1", "0", "0", "highway=secondary estimated_traffic_class=1", "", "5002", "500347"],
          ["131771199", "33175536", "176", "36", "1100", "0", "1", "0", "0", "reversedirection=yes highway=secondary surface=asphalt estimated_traffic_class=1", "", "5010", "501116"],
          ["131770363", "33174401", "166", "154", "1100", "0", "6", "0", "0", "highway=secondary surface=asphalt estimated_traffic_class=1", "", "5035", "503656"],
          ["131770199", "33174293", "163", "19", "1100", "7", "0", "0", "0", "reversedirection=yes highway=secondary surface=asphalt estimated_traffic_class=1", "", "5037", "503813"],
          ["131769464", "33172692", "163", "206", "1100", "0", "9", "0", "0", "highway=secondary estimated_traffic_class=1", "estimated_crossing_class=1", "5063", "506378"],
          ["131769559", "33172531", "164", "20", "1100", "0", "2", "0", "0", "highway=secondary estimated_traffic_class=1", "", "5066", "506703"],
          ["131769731", "33172382", "164", "23", "1100", "0", "4", "0", "0", "highway=secondary surface=unpaved estimated_traffic_class=1", "", "5070", "507080"],
          ["131769872", "33172263", "164", "19", "1100", "0", "2", "0", "0", "highway=secondary estimated_traffic_class=1", "", "5072", "507291"],
          ["131773529", "33169628", "170", "449", "1100", "0", "0", "0", "0", "reversedirection=yes highway=secondary surface=paved estimated_traffic_class=1", "", "5150", "515092"],
          ["131773830", "33169369", "157", "41", "1100", "173", "2", "0", "0", "highway=secondary estimated_traffic_class=1", "estimated_crossing_class=1", "5154", "515388"],
          ["131773974", "33166862", "137", "290", "1100", "1233", "5", "0", "0", "highway=secondary estimated_traffic_class=1", "estimated_crossing_class=1", "5181", "516313"],
          ["131774080", "33166565", "140", "34", "1100", "0", "1", "0", "0", "highway=secondary estimated_traffic_class=1", "", "5186", "516790"],
          ["131774477", "33165290", "133", "146", "1100", "0", "0", "0", "0", "highway=secondary surface=paved estimated_traffic_class=1", "", "5201", "518314"],
          ["131773403", "33161175", "105", "500", "1100", "979", "19", "0", "0", "reversedirection=yes highway=secondary estimated_traffic_class=1 oneway=no", "estimated_crossing_class=1", "5247", "520153"],
          ["131773494", "33161112", "104", "11", "1100", "35", "1", "0", "0", "reversedirection=yes highway=secondary estimated_traffic_class=1", "", "5248", "520245"],
          ["131774275", "33160901", "99", "78", "1100", "334", "5", "0", "0", "highway=secondary surface=asphalt estimated_traffic_class=1", "", "5256", "520826"],
          ["131780381", "33160898", "72", "602", "1100", "1014", "19", "0", "0", "highway=secondary surface=asphalt estimated_traffic_class=1 oneway=no", "estimated_crossing_class=1", "5305", "522916"],
          ["131780431", "33160876", "71", "5", "1100", "25", "0", "0", "0", "highway=secondary surface=asphalt estimated_traffic_class=1 oneway=no", "estimated_crossing_class=1", "5306", "522955"],
          ["131787824", "33157608", "30", "959", "1100", "1591", "22", "0", "0", "highway=secondary surface=asphalt estimated_traffic_class=1 oneway=no", "", "5402", "528859"],
          ["131788126", "33157557", "24", "29", "1100", "333", "0", "0", "0", "highway=secondary surface=asphalt estimated_traffic_class=1", "", "5404", "528859"],
          ["131789427", "33157334", "13", "125", "1100", "531", "0", "0", "0", "highway=secondary surface=asphalt estimated_traffic_class=1 oneway=no", "estimated_crossing_class=1", "5414", "528859"],
          ["131789576", "33157257", "13", "16", "1100", "0", "1", "0", "0", "highway=secondary surface=asphalt estimated_traffic_class=1 oneway=no", "", "5415", "528859"],
          ["131789615", "33157237", "13", "4", "1100", "0", "0", "0", "0", "highway=secondary surface=asphalt estimated_traffic_class=1", "estimated_crossing_class=1", "5416", "528859"],
          ["131790420", "33156652", "16", "99", "1100", "0", "0", "20", "0", "highway=secondary surface=asphalt estimated_traffic_class=1", "highway=traffic_signals traffic_signals:direction=both traffic_signals=signal", "5426", "529825"],
          ["131789770", "33155893", "11", "104", "1500", "0", "78", "20", "0", "reversedirection=yes highway=trunk surface=asphalt oneway=no", "highway=traffic_signals estimated_crossing_class=0 traffic_signals:direction=both traffic_signals=signal", "5436", "530762"],
          ["131789921", "33149503", "7", "754", "1000", "0", "108", "0", "0", "highway=tertiary surface=asphalt estimated_traffic_class=1 oneway=no", "", "5536", "540773"],
          ["131789934", "33149157", "7", "39", "1000", "0", "3", "0", "0", "highway=tertiary surface=asphalt estimated_traffic_class=1", "", "5541", "541260"],
          ["131790596", "33146038", "7", "352", "1000", "0", "0", "0", "0", "reversedirection=yes highway=tertiary surface=asphalt estimated_traffic_class=1", "", "5595", "546750"],
          ["131790259", "33143552", "7", "278", "1000", "0", "0", "0", "0", "highway=tertiary surface=asphalt estimated_traffic_class=1", "railway=level_crossing", "5640", "551245"],
          ["131789971", "33142497", "4", "124", "1000", "0", "16", "0", "0", "highway=tertiary surface=asphalt estimated_traffic_class=1", "", "5657", "552883"],
          ["131789162", "33138801", "3", "418", "1000", "0", "0", "0", "0", "reversedirection=yes highway=tertiary surface=asphalt estimated_traffic_class=1", "", "5718", "559056"],
          ["131788820", "33135324", "3", "391", "1000", "0", "2", "20", "0", "reversedirection=yes highway=tertiary surface=asphalt estimated_traffic_class=2", "highway=traffic_signals traffic_signals:direction=both traffic_signals=signal", "5785", "565755"],
          ["131788841", "33135162", "3", "18", "1000", "0", "0", "20", "0", "reversedirection=yes highway=tertiary surface=asphalt estimated_traffic_class=2", "highway=crossing crossing=traffic_signals", "5789", "566123"],
          ["131789136", "33131971", "4", "355", "1000", "0", "0", "20", "0", "reversedirection=yes highway=tertiary surface=asphalt estimated_traffic_class=2", "highway=crossing crossing=traffic_signals", "5854", "572648"],
          ["131789139", "33131940", "4", "3", "1000", "0", "0", "20", "0", "reversedirection=yes highway=tertiary surface=asphalt estimated_traffic_class=2", "highway=traffic_signals crossing=traffic_signals traffic_signals=unknown", "5855", "572702"],
          ["131789334", "33130125", "2", "203", "1000", "0", "0", "0", "0", "reversedirection=yes highway=tertiary surface=asphalt estimated_traffic_class=2", "highway=crossing crossing=marked", "5884", "575563"],
          ["131789679", "33128185", "2", "219", "1000", "0", "2", "0", "0", "reversedirection=yes highway=tertiary surface=asphalt estimated_traffic_class=2", "", "5920", "579192"],
          ["131789590", "33127730", "2", "51", "1000", "0", "0", "0", "0", "highway=tertiary surface=asphalt estimated_traffic_class=2", "", "5928", "580032"],
          ["131789582", "33127715", "2", "2", "1000", "0", "3", "0", "0", "reversedirection=yes highway=tertiary surface=asphalt estimated_traffic_class=2", "highway=crossing", "5929", "580065"],
          ["131789533", "33127628", "2", "10", "1000", "0", "0", "20", "0", "reversedirection=yes highway=tertiary surface=asphalt estimated_traffic_class=2", "highway=traffic_signals estimated_crossing_class=0 traffic_signals:direction=both traffic_signals=signal", "5930", "580231"],
          ["131789648", "33127591", "2", "11", "1230", "0", "97", "0", "0", "reversedirection=yes highway=primary surface=asphalt estimated_traffic_class=3", "highway=crossing estimated_crossing_class=0", "5932", "580414"],
          ["131790165", "33127358", "3", "54", "1230", "0", "1", "0", "0", "reversedirection=yes highway=primary surface=asphalt estimated_traffic_class=3", "estimated_crossing_class=4", "5942", "581451"],
          ["131792379", "33125810", "3", "269", "1260", "0", "0", "20", "0", "reversedirection=yes highway=primary estimated_traffic_class=4", "highway=traffic_signals estimated_crossing_class=0 traffic_signals:direction=both traffic_signals=signal", "5990", "586163"],
          ["131793537", "33124972", "2", "143", "1260", "0", "0", "0", "0", "reversedirection=yes highway=primary estimated_traffic_class=4", "estimated_crossing_class=4", "6010", "588244"],
          ["131793728", "33124833", "2", "24", "1260", "0", "0", "0", "0", "reversedirection=yes highway=primary estimated_traffic_class=4", "estimated_crossing_class=4", "6014", "588624"],
          ["131795007", "33124010", "3", "151", "1260", "0", "0", "20", "0", "reversedirection=yes highway=primary estimated_traffic_class=4", "highway=crossing estimated_crossing_class=0 crossing=traffic_signals", "6042", "591421"],
          ["131795085", "33123969", "3", "9", "1260", "0", "0", "20", "0", "reversedirection=yes highway=primary estimated_traffic_class=4", "highway=traffic_signals estimated_crossing_class=0 traffic_signals:direction=both traffic_signals=signal", "6044", "591607"],
          ["131795150", "33123935", "3", "7", "1260", "0", "0", "20", "0", "reversedirection=yes highway=primary surface=asphalt estimated_traffic_class=4", "highway=crossing estimated_crossing_class=0 crossing=traffic_signals", "6045", "591749"],
          ["131795936", "33123529", "3", "86", "1260", "0", "0", "0", "0", "reversedirection=yes highway=primary surface=asphalt estimated_traffic_class=4", "estimated_crossing_class=4", "6063", "593462"],
          ["131797863", "33122565", "3", "210", "1260", "0", "0", "20", "0", "reversedirection=yes highway=primary surface=asphalt estimated_traffic_class=4", "highway=traffic_signals traffic_signals:direction=both traffic_signals=signal", "6099", "597160"],
          ["131798407", "33122296", "6", "59", "1260", "0", "0", "0", "0", "reversedirection=yes highway=primary surface=asphalt estimated_traffic_class=4", "estimated_crossing_class=4", "6116", "598857"],
          ["131799022", "33122124", "6", "61", "1260", "0", "0", "0", "0", "reversedirection=yes highway=primary surface=asphalt estimated_traffic_class=4", "estimated_crossing_class=4", "6131", "600281"],
          ["131799672", "33122117", "5", "62", "1260", "0", "0", "0", "0", "reversedirection=yes highway=primary surface=asphalt estimated_traffic_class=4", "estimated_crossing_class=4", "6142", "601440"],
          ["131799847", "33122127", "5", "16", "1260", "0", "0", "0", "0", "reversedirection=yes highway=primary surface=asphalt estimated_traffic_class=4", "highway=crossing estimated_crossing_class=2", "6145", "601692"],
          ["131800025", "33122132", "5", "17", "1260", "0", "0", "20", "0", "reversedirection=yes highway=primary surface=asphalt estimated_traffic_class=4", "highway=traffic_signals estimated_crossing_class=0 traffic_signals:direction=both traffic_signals=signal", "6147", "601963"],
          ["131800150", "33122142", "5", "12", "1260", "0", "0", "0", "0", "reversedirection=yes highway=primary surface=asphalt estimated_traffic_class=4", "highway=crossing estimated_crossing_class=0", "6149", "602144"],
          ["131800444", "33122164", "4", "28", "1260", "0", "0", "0", "0", "reversedirection=yes highway=primary surface=asphalt estimated_traffic_class=4", "estimated_crossing_class=0", "6153", "602530"],
          ["131800841", "33122183", "4", "37", "1260", "0", "0", "20", "0", "reversedirection=yes highway=primary surface=asphalt estimated_traffic_class=4", "highway=traffic_signals estimated_crossing_class=0 traffic_signals:direction=both traffic_signals=signal", "6158", "603017"],
          ["131802531", "33122484", "4", "161", "1260", "0", "1", "20", "0", "reversedirection=yes highway=primary surface=asphalt estimated_traffic_class=4 oneway=no", "highway=traffic_signals estimated_crossing_class=0 traffic_signals=signal", "6183", "605530"],
          ["131802640", "33122503", "5", "10", "1290", "0", "0", "0", "0", "reversedirection=yes highway=primary surface=asphalt estimated_traffic_class=5", "highway=crossing estimated_crossing_class=0", "6185", "605743"],
          ["131804240", "33122812", "9", "153", "1290", "0", "0", "0", "0", "reversedirection=yes highway=primary surface=asphalt estimated_traffic_class=5", "highway=crossing estimated_crossing_class=4 crossing=marked", "6219", "609070"],
          ["131804361", "33122835", "9", "12", "1290", "0", "0", "0", "0", "reversedirection=yes highway=primary surface=asphalt estimated_traffic_class=5", "estimated_crossing_class=4", "6221", "609279"],
          ["131804935", "33122946", "7", "55", "1290", "0", "0", "0", "0", "reversedirection=yes highway=primary surface=asphalt estimated_traffic_class=5", "estimated_crossing_class=4", "6233", "610520"],
          ["131805410", "33123037", "5", "45", "1290", "0", "0", "20", "0", "reversedirection=yes highway=primary surface=asphalt estimated_traffic_class=5", "highway=crossing estimated_crossing_class=0 crossing=traffic_signals", "6239", "611114"],
          ["131805568", "33123068", "5", "15", "1290", "0", "0", "20", "0", "reversedirection=yes highway=primary surface=asphalt estimated_traffic_class=5", "highway=traffic_signals estimated_crossing_class=0 traffic_signals:direction=both traffic_signals=signal", "6241", "611303"],
          ["131805662", "33123093", "4", "9", "1030", "0", "0", "20", "0", "highway=tertiary surface=asphalt estimated_traffic_class=3", "highway=crossing crossing=traffic_signals", "6242", "611414"],
          ["131810710", "33123934", "0", "482", "1030", "0", "0", "0", "0", "highway=tertiary surface=asphalt estimated_traffic_class=3", "", "6312", "618382"],
          ["131810574", "33125618", "0", "191", "1030", "0", "98", "0", "0", "reversedirection=yes highway=tertiary surface=asphalt estimated_traffic_class=3", "", "6339", "621087"],
          ["131810530", "33126487", "-8192", "242", "1030", "0", "144", "0", "0", "reversedirection=yes highway=tertiary estimated_traffic_class=3", "", "6374", "624662"],
          ["131813283", "33126672", "-8192", "268", "5670", "0", "11", "0", "0", "route=ferry", "", "6418", "629031"]
        ],
        "times": [0,12.768,28.046,36.719,44.884,58.602,59.867,75.83,77.838,79.749,80.492,83.776,85.996,93.087,94.928,95.672,100.385,102.768,113.454,128.945,130.545,139.376,155.503,172.366,174.422,181.816,189.258,191.265,194.723,196.725,202.83,241.932,242.744,244.189,254.309,260.571,267.924,284.693,291.755,297.918,302.934,303.316,306.368,309.941,310.65,323.046,345.663,347.26,354.18,361.368,363.138,366.124,370.166,372.346,380.23,393.465,407.264,409.58,411.736,415.557,422.89,424.059,427.735,430.411,437.416,443.572,445.819,469.65,471.283,473.085,477.636,493.774,505.528,514.841,516.07,523.44,544.837,567.239,577.629,595.264,608.762,617.005,619.423,627.664,636.065,637.459,648.711,674.492,692.606,716.985,740.543,765.028,779.026,782.427,791.252,812.752,832.289,856.564,885.206,895.324,904.046,908.305,917.966,949.397,962.514,964.313,969.944,971.399,991.391,1005.323,1014.696,1021.289,1030.321,1069.508,1075.801,1076.842,1116.759,1117.749,1122.755,1127.431,1130.988,1149.092,1163.479,1168.687,1173.754,1198.727,1220.169,1239.96,1252.947,1260.702,1265.28,1270.603,1287.591,1289.298,1291.36,1313.673,1317.177,1339.27,1340.764,1350.408,1356.742,1362.474,1383.893,1404.399,1453.527,1465.325,1469.197,1476.936,1486.371,1488.065,1493.927,1498.925,1528.796,1562.313,1565.004,1567.315,1647.91,1653.443,1656.126,1674.962,1677.357,1700.383,1705.84,1716.443,1719.113,1727.625,1743.538,1766.47,1778.732,1800.343,1823.213,1839.322,1861.699,1900.201,1925.582,1926.365,1929.497,1930.303,1950.605,1961.083,1962.264,1963.847,1975.017,1999.963,2041.277,2073.125,2082.839,2084.395,2092.016,2115.184,2149.072,2150.133,2153.438,2154.101,2185.438,2192.544,2217.942,2224.967,2227.758,2229.825,2237.521,2262.773,2287.46,2300.855,2312.175,2329.413,2339.489,2346.719,2348.979,2351.89,2370.448,2386.907,2399.205,2419.098,2439.714,2443.248,2451.967,2460.003,2466.808,2477.803,2480.978,2483.727,2503.016,2512.187,2518.688,2522.683,2533.447,2545.331,2551.964,2558.721,2561.703,2565.353,2578.97,2590.887,2617.034,2626.447,2628.087,2630.66,2645.977,2650.14,2658.679,2670.233,2673.203,2676.305,2681.589,2689.756,2697.036,2710.835,2742.507,2758.767,2773.483,2779.674,2781.436,2808.776,2829.885,2852.984,2858.849,2860.525,2862.065,2869.22,2886.527,2893.969,2901.062,2907.035,2913.475,2953.225,2962.411,2978.657,2994.271,3006.821,3027.411,3043.417,3053.596,3061.653,3103.479,3110.172,3118.196,3132.953,3147.329,3149.905,3175.756,3207.981,3219.758,3230.108,3232.237,3233.119,3240.459,3241.876,3273.671,3303.183,3318.94,3376.261,3399.74,3493.573,3513.537,3529.855,3546.945,3565.154,3579.741,3604.063,3712.086,3740.84,3773.361,3803.615,3838.197,3850.323,3864.999,3877.271,3980.645,4005.108,4027.934,4044.473,4066.964,4072.357,4086.57,4089.961,4093.674,4100.345,4108.048,4122.552,4142.921,4168.16,4179.513,4186.68,4220.877,4246.224,4266.13,4272.389,4282.114,4292.844,4461.592,4999.925,5002.79,5006.213,5008.414,5010.475,5018.168,5021.516,5024.662,5027.409,5032.354,5035.874,5037.44,5042.949,5046.461,5049.966,5054.728,5058.501,5063.083,5066.338,5070.104,5070.761,5072.211,5150.224,5153.179,5154.699,5157.019,5159.659,5161.259,5161.979,5162.619,5163.499,5164.459,5172.459,5175.39,5181.712,5186.477,5201.723,5203.723,5205.563,5207.883,5229.483,5235.2,5238.279,5242.284,5245.599,5247.867,5248.783,5250.289,5252.503,5254.596,5256.036,5258.355,5264.755,5266.804,5269.204,5275.444,5277.795,5280.835,5286.835,5289.475,5292.355,5294.709,5298.642,5304.156,5305.836,5306.236,5306.716,5308.32,5309.892,5312.483,5316.21,5325.857,5338.978,5342.498,5344.817,5346.897,5349.217,5352.257,5354.737,5356.897,5384.275,5387.393,5391.517,5395.389,5397.869,5400.589,5402.189,5404.509,5408.829,5411.549,5413.389,5414.509,5414.75,5415.79,5416.109,5417.069,5426.734,5429.49,5433.04,5434.686,5436.102,5440.447,5442.329,5444.001,5446.164,5466.802,5480.885,5483.171,5486.582,5487.582,5517.06,5521.794,5525.555,5532.15,5534.777,5536.171,5537.129,5538.108,5539.873,5541.039,5541.457,5542.863,5560.677,5582.703,5585.155,5591.432,5595.22,5595.936,5600.836,5601.948,5606.758,5614.602,5640.882,5644.913,5646.988,5648.977,5650.62,5652.076,5654.799,5657.262,5658.934,5669.164,5678.516,5690.02,5692.592,5716.079,5718.987,5735.229,5737.254,5744.917,5757.014,5762.312,5763.461,5785.971,5789.646,5792.812,5804.372,5820.162,5833.965,5843.886,5854.889,5855.433,5859.637,5873.459,5883.158,5884.041,5886.011,5888.169,5901.526,5906.88,5912.697,5918.565,5919.797,5920.324,5928.729,5929.061,5929.889,5930.718,5932.543,5935.903,5940.854,5942.915,5954.444,5990.032,6010.824,6014.624,6032.843,6042.588,6044.45,6045.874,6063.004,6063.75,6080.37,6087.566,6098.771,6099.975,6116.943,6120.832,6124.515,6128.265,6131.178,6133.562,6138.252,6142.771,6145.291,6147.995,6149.804,6153.667,6158.538,6183.667,6185.794,6219.056,6221.146,6233.562,6239.496,6241.386,6242.494,6250.744,6256.779,6263.202,6263.958,6274.338,6277.008,6284.931,6294.964,6312.168,6314.417,6325.265,6332.06,6333.013,6339.212,6352.027,6352.998,6353.808,6354.944,6364.425,6365.135,6365.995,6366.717,6374.958,6385.522,6397.73,6411.64,6418.644]
      },
      "geometry": {
        "type": "LineString",
        "coordinates": [
          [131.61359, 33.23633, 7.0],
          [131.61277, 33.23632, 7.0],
          [131.61278, 33.23692, 8.5],
          [131.61278, 33.23723, 9.5],
          [131.61315, 33.23724, 9.75],
          [131.61393, 33.23725, 9.25],
          [131.61400, 33.23725, 9.25],
          [131.61507, 33.23725, 5.75],
          [131.61521, 33.23727, 5.5],
          [131.61535, 33.23729, 5.25],
          [131.61539, 33.23730, 5.25],
          [131.61564, 33.23734, 5.0],
          [131.61580, 33.23737, 4.75],
          [131.61627, 33.23740, 5.25],
          [131.61647, 33.23745, 5.5],
          [131.61654, 33.23746, 5.75],
          [131.61697, 33.23755, 5.75],
          [131.61716, 33.23760, 5.75],
          [131.61803, 33.23777, 5.25],
          [131.61877, 33.23792, 7.25],
          [131.61885, 33.23794, 7.75],
          [131.61912, 33.23800, 9.5],
          [131.61972, 33.23813, 12.75],
          [131.62021, 33.23824, 15.0],
          [131.62025, 33.23828, 15.5],
          [131.62033, 33.23845, 16.0],
          [131.62045, 33.23869, 15.25],
          [131.62045, 33.23877, 15.0],
          [131.62037, 33.23889, 15.25],
          [131.62035, 33.23897, 15.25],
          [131.62056, 33.23901, 13.5],
          [131.62368, 33.23982, 5.25],
          [131.62375, 33.23984, 6.0],
          [131.62388, 33.23988, 6.75],
          [131.62449, 33.24007, 8.0],
          [131.62498, 33.24021, 6.75],
          [131.62553, 33.24042, 6.25],
          [131.62672, 33.24083, 5.75],
          [131.62732, 33.24105, 4.0],
          [131.62785, 33.24125, 3.0],
          [131.62827, 33.24139, 2.5],
          [131.62830, 33.24140, 2.5],
          [131.62851, 33.24148, 3.0],
          [131.62870, 33.24155, 3.75],
          [131.62875, 33.24157, 3.75],
          [131.62928, 33.24176, 5.0],
          [131.63033, 33.24214, 5.5],
          [131.63042, 33.24217, 5.25],
          [131.63087, 33.24230, 4.75],
          [131.63136, 33.24240, 4.5],
          [131.63148, 33.24242, 4.25],
          [131.63170, 33.24244, 4.0],
          [131.63198, 33.24244, 4.25],
          [131.63212, 33.24244, 4.5],
          [131.63257, 33.24240, 5.0],
          [131.63336, 33.24233, 5.0],
          [131.63418, 33.24226, 5.25],
          [131.63432, 33.24225, 5.0],
          [131.63447, 33.24224, 5.0],
          [131.63472, 33.24222, 5.0],
          [131.63518, 33.24218, 5.0],
          [131.63526, 33.24217, 5.0],
          [131.63550, 33.24216, 5.0],
          [131.63566, 33.24214, 5.0],
          [131.63602, 33.24210, 6.0],
          [131.63627, 33.24209, 7.0],
          [131.63630, 33.24218, 6.75],
          [131.63659, 33.24324, 6.75],
          [131.63661, 33.24331, 6.75],
          [131.63664, 33.24340, 6.75],
          [131.63670, 33.24361, 7.0],
          [131.63701, 33.24457, 5.75],
          [131.63733, 33.24537, 4.25],
          [131.63804, 33.24522, 3.75],
          [131.63814, 33.24522, 3.5],
          [131.63873, 33.24530, 3.0],
          [131.64008, 33.24547, 3.75],
          [131.64133, 33.24563, 4.5],
          [131.64182, 33.24569, 5.5],
          [131.64257, 33.24579, 6.75],
          [131.64346, 33.24590, 5.5],
          [131.64413, 33.24599, 4.25],
          [131.64432, 33.24601, 4.0],
          [131.64501, 33.24610, 3.25],
          [131.64560, 33.24618, 3.5],
          [131.64570, 33.24619, 3.5],
          [131.64635, 33.24627, 4.25],
          [131.64769, 33.24644, 5.25],
          [131.64916, 33.24663, 3.0],
          [131.65058, 33.24681, 4.0],
          [131.65175, 33.24696, 5.25],
          [131.65291, 33.24711, 6.5],
          [131.65362, 33.24720, 7.0],
          [131.65384, 33.24723, 6.5],
          [131.65451, 33.24731, 5.5],
          [131.65592, 33.24749, 5.75],
          [131.65730, 33.24767, 5.0],
          [131.65893, 33.24788, 4.75],
          [131.66047, 33.24807, 6.0],
          [131.66114, 33.24816, 5.5],
          [131.66182, 33.24825, 4.5],
          [131.66218, 33.24831, 3.5],
          [131.66297, 33.24848, 3.0],
          [131.66425, 33.24885, 6.25],
          [131.66536, 33.24918, 3.25],
          [131.66551, 33.24922, 2.5],
          [131.66601, 33.24937, 1.75],
          [131.66612, 33.24941, 2.0],
          [131.66745, 33.24981, 2.25],
          [131.66825, 33.25000, 2.75],
          [131.66870, 33.25010, 3.75],
          [131.66901, 33.25015, 4.25],
          [131.66944, 33.25020, 4.5],
          [131.67158, 33.25027, 5.0],
          [131.67196, 33.25029, 5.25],
          [131.67203, 33.25029, 5.25],
          [131.67420, 33.25036, 6.0],
          [131.67426, 33.25037, 6.0],
          [131.67461, 33.25038, 5.75],
          [131.67494, 33.25040, 5.5],
          [131.67517, 33.25048, 5.5],
          [131.67628, 33.25099, 5.25],
          [131.67717, 33.25134, 5.0],
          [131.67751, 33.25142, 4.75],
          [131.67795, 33.25148, 3.5],
          [131.67996, 33.25142, 2.5],
          [131.68123, 33.25138, 3.25],
          [131.68231, 33.25135, 4.0],
          [131.68325, 33.25132, 3.0],
          [131.68331, 33.25176, 3.0],
          [131.68333, 33.25203, 2.75],
          [131.68334, 33.25234, 2.75],
          [131.68335, 33.25317, 3.5],
          [131.68335, 33.25325, 3.75],
          [131.68335, 33.25335, 3.75],
          [131.68335, 33.25438, 4.25],
          [131.68335, 33.25458, 3.75],
          [131.68481, 33.25457, 3.75],
          [131.68490, 33.25457, 3.75],
          [131.68570, 33.25456, 2.25],
          [131.68620, 33.25453, 2.0],
          [131.68659, 33.25451, 2.25],
          [131.68754, 33.25451, 2.25],
          [131.68868, 33.25452, 2.25],
          [131.69174, 33.25451, 2.75],
          [131.69248, 33.25448, 2.75],
          [131.69273, 33.25448, 2.75],
          [131.69322, 33.25449, 2.75],
          [131.69401, 33.25452, 3.0],
          [131.69413, 33.25453, 3.0],
          [131.69452, 33.25455, 3.5],
          [131.69481, 33.25457, 4.0],
          [131.69657, 33.25468, 7.25],
          [131.69834, 33.25483, 8.5],
          [131.69850, 33.25484, 8.5],
          [131.69865, 33.25485, 8.5],
          [131.70420, 33.25522, 3.75],
          [131.70456, 33.25524, 3.75],
          [131.70475, 33.25525, 3.5],
          [131.70575, 33.25532, 4.75],
          [131.70588, 33.25533, 5.0],
          [131.70693, 33.25540, 6.25],
          [131.70728, 33.25542, 5.5],
          [131.70803, 33.25547, 5.0],
          [131.70802, 33.25531, 4.75],
          [131.70797, 33.25478, 4.5],
          [131.70788, 33.25388, 4.5],
          [131.70776, 33.25254, 4.0],
          [131.70771, 33.25186, 4.0],
          [131.70763, 33.25087, 5.0],
          [131.70755, 33.24989, 6.0],
          [131.70750, 33.24921, 6.75],
          [131.70895, 33.24906, 6.0],
          [131.71128, 33.24883, 6.5],
          [131.71323, 33.24863, 4.75],
          [131.71329, 33.24863, 4.75],
          [131.71351, 33.24861, 4.5],
          [131.71356, 33.24860, 4.75],
          [131.71483, 33.24847, 5.0],
          [131.71549, 33.24841, 5.0],
          [131.71557, 33.24840, 5.0],
          [131.71566, 33.24836, 4.75],
          [131.71628, 33.24807, 5.0],
          [131.71753, 33.24750, 5.75],
          [131.71907, 33.24679, 8.5],
          [131.72067, 33.24605, 8.75],
          [131.72123, 33.24580, 8.5],
          [131.72132, 33.24576, 8.25],
          [131.72182, 33.24553, 7.75],
          [131.72334, 33.24483, 7.0],
          [131.72476, 33.24417, 9.25],
          [131.72482, 33.24415, 9.0],
          [131.72500, 33.24406, 8.75],
          [131.72505, 33.24404, 8.75],
          [131.72676, 33.24325, 9.0],
          [131.72717, 33.24310, 9.0],
          [131.72881, 33.24251, 8.25],
          [131.72930, 33.24233, 7.5],
          [131.72951, 33.24225, 7.0],
          [131.72965, 33.24220, 7.0],
          [131.73017, 33.24201, 7.0],
          [131.73142, 33.24156, 8.5],
          [131.73300, 33.24097, 7.5],
          [131.73367, 33.24075, 8.5],
          [131.73419, 33.24060, 9.25],
          [131.73520, 33.24033, 8.75],
          [131.73577, 33.24018, 9.0],
          [131.73625, 33.24005, 8.5],
          [131.73641, 33.24001, 8.25],
          [131.73660, 33.23996, 8.25],
          [131.73760, 33.23970, 9.25],
          [131.73892, 33.23935, 7.0],
          [131.73953, 33.23920, 8.5],
          [131.74069, 33.23877, 11.0],
          [131.74175, 33.23838, 8.75],
          [131.74195, 33.23830, 8.5],
          [131.74255, 33.23810, 7.75],
          [131.74323, 33.23784, 6.0],
          [131.74301, 33.23744, 6.25],
          [131.74278, 33.23706, 8.25],
          [131.74279, 33.23695, 8.75],
          [131.74279, 33.23685, 9.0],
          [131.74288, 33.23609, 9.25],
          [131.74294, 33.23554, 8.0],
          [131.74263, 33.23511, 6.25],
          [131.74245, 33.23486, 6.0],
          [131.74195, 33.23474, 11.25],
          [131.74215, 33.23432, 9.0],
          [131.74246, 33.23399, 4.25],
          [131.74283, 33.23373, 4.25],
          [131.74312, 33.23361, 4.75],
          [131.74347, 33.23351, 4.5],
          [131.74443, 33.23335, 2.5],
          [131.74543, 33.23320, 4.0],
          [131.74700, 33.23296, 5.0],
          [131.74764, 33.23285, 4.5],
          [131.74765, 33.23276, 4.25],
          [131.74771, 33.23261, 4.25],
          [131.74775, 33.23181, 4.75],
          [131.74775, 33.23161, 5.0],
          [131.74780, 33.23122, 5.5],
          [131.74789, 33.23069, 5.75],
          [131.74794, 33.23054, 5.5],
          [131.74800, 33.23038, 5.25],
          [131.74812, 33.23009, 5.0],
          [131.74831, 33.22971, 5.5],
          [131.74846, 33.22943, 6.25],
          [131.74875, 33.22897, 7.25],
          [131.74938, 33.22793, 11.75],
          [131.74983, 33.22717, 8.25],
          [131.75039, 33.22624, 6.25],
          [131.75061, 33.22589, 6.0],
          [131.75065, 33.22578, 6.0],
          [131.75136, 33.22467, 7.5],
          [131.75181, 33.22389, 8.75],
          [131.75250, 33.22281, 11.25],
          [131.75264, 33.22258, 12.0],
          [131.75266, 33.22251, 12.25],
          [131.75268, 33.22244, 12.0],
          [131.75271, 33.22225, 11.25],
          [131.75273, 33.22143, 9.75],
          [131.75275, 33.22109, 10.25],
          [131.75281, 33.22081, 11.0],
          [131.75292, 33.22052, 13.25],
          [131.75305, 33.22027, 14.0],
          [131.75407, 33.21883, 12.25],
          [131.75440, 33.21840, 11.75],
          [131.75494, 33.21777, 12.5],
          [131.75525, 33.21729, 14.25],
          [131.75549, 33.21683, 17.5],
          [131.75576, 33.21623, 19.5],
          [131.75595, 33.21573, 20.5],
          [131.75606, 33.21533, 20.5],
          [131.75611, 33.21491, 19.75],
          [131.75624, 33.21337, 19.5],
          [131.75630, 33.21285, 17.0],
          [131.75641, 33.21220, 15.5],
          [131.75664, 33.21139, 16.5],
          [131.75682, 33.21092, 21.75],
          [131.75686, 33.21085, 23.0],
          [131.75699, 33.21040, 26.5],
          [131.75712, 33.20980, 29.0],
          [131.75717, 33.20938, 27.75],
          [131.75719, 33.20886, 27.0],
          [131.75720, 33.20876, 27.0],
          [131.75720, 33.20871, 27.0],
          [131.75722, 33.20833, 27.0],
          [131.75722, 33.20830, 26.75],
          [131.75727, 33.20703, 29.0],
          [131.75734, 33.20618, 32.0],
          [131.75743, 33.20573, 33.5],
          [131.75769, 33.20501, 41.75],
          [131.75798, 33.20453, 41.75],
          [131.75909, 33.20328, 50.0],
          [131.75939, 33.20286, 52.0],
          [131.75957, 33.20247, 53.25],
          [131.75969, 33.20204, 54.5],
          [131.75974, 33.20165, 56.75],
          [131.75974, 33.20130, 57.75],
          [131.75964, 33.20089, 61.25],
          [131.75930, 33.19992, 73.75],
          [131.75923, 33.19959, 77.75],
          [131.75920, 33.19923, 81.25],
          [131.75926, 33.19882, 82.75],
          [131.75941, 33.19808, 82.75],
          [131.75943, 33.19778, 84.0],
          [131.75940, 33.19749, 86.25],
          [131.75932, 33.19724, 87.0],
          [131.75866, 33.19636, 99.25],
          [131.75850, 33.19609, 102.75],
          [131.75842, 33.19580, 104.75],
          [131.75840, 33.19552, 105.0],
          [131.75850, 33.19477, 100.0],
          [131.75850, 33.19450, 99.25],
          [131.75831, 33.19371, 98.75],
          [131.75829, 33.19341, 96.0],
          [131.75833, 33.19311, 96.0],
          [131.75844, 33.19283, 98.25],
          [131.75862, 33.19252, 101.5],
          [131.75882, 33.19231, 106.0],
          [131.75903, 33.19213, 110.5],
          [131.75937, 33.19196, 112.25],
          [131.75971, 33.19185, 109.75],
          [131.76012, 33.19177, 108.0],
          [131.76074, 33.19170, 115.0],
          [131.76127, 33.19158, 116.75],
          [131.76173, 33.19140, 117.75],
          [131.76203, 33.19123, 115.5],
          [131.76238, 33.19096, 113.25],
          [131.76268, 33.19062, 117.0],
          [131.76328, 33.18959, 140.75],
          [131.77109, 33.17599, 174.0],
          [131.77114, 33.17585, 171.5],
          [131.77117, 33.17572, 173.25],
          [131.77119, 33.17563, 174.5],
          [131.77119, 33.17553, 176.0],
          [131.77115, 33.17525, 176.0],
          [131.77109, 33.17509, 175.0],
          [131.77100, 33.17494, 172.0],
          [131.77087, 33.17479, 167.75],
          [131.77062, 33.17457, 168.0],
          [131.77036, 33.17440, 166.5],
          [131.77019, 33.17429, 163.75],
          [131.76976, 33.17396, 164.25],
          [131.76955, 33.17375, 167.0],
          [131.76942, 33.17348, 166.25],
          [131.76936, 33.17322, 164.75],
          [131.76938, 33.17298, 164.0],
          [131.76946, 33.17269, 163.75],
          [131.76955, 33.17253, 164.25],
          [131.76973, 33.17238, 164.25],
          [131.76975, 33.17235, 164.25],
          [131.76987, 33.17226, 164.5],
          [131.77352, 33.16962, 170.5],
          [131.77370, 33.16950, 163.5],
          [131.77383, 33.16936, 157.0],
          [131.77400, 33.16914, 146.75],
          [131.77413, 33.16887, 140.25],
          [131.77419, 33.16870, 137.0],
          [131.77421, 33.16862, 136.0],
          [131.77421, 33.16854, 135.25],
          [131.77421, 33.16844, 134.75],
          [131.77419, 33.16834, 134.75],
          [131.77392, 33.16746, 134.75],
          [131.77390, 33.16723, 136.75],
          [131.77397, 33.16686, 137.75],
          [131.77408, 33.16656, 140.25],
          [131.77447, 33.16529, 133.75],
          [131.77449, 33.16506, 126.5],
          [131.77446, 33.16485, 121.5],
          [131.77437, 33.16460, 117.75],
          [131.77306, 33.16243, 110.0],
          [131.77294, 33.16203, 112.75],
          [131.77296, 33.16179, 111.75],
          [131.77305, 33.16158, 110.0],
          [131.77320, 33.16135, 108.25],
          [131.77340, 33.16117, 105.5],
          [131.77349, 33.16111, 104.75],
          [131.77364, 33.16103, 103.5],
          [131.77387, 33.16096, 102.0],
          [131.77408, 33.16091, 100.5],
          [131.77427, 33.16090, 99.5],
          [131.77459, 33.16092, 99.5],
          [131.77539, 33.16115, 95.75],
          [131.77566, 33.16120, 95.0],
          [131.77598, 33.16122, 93.0],
          [131.77681, 33.16113, 86.75],
          [131.77711, 33.16113, 87.25],
          [131.77751, 33.16120, 85.25],
          [131.77825, 33.16147, 80.25],
          [131.77860, 33.16151, 78.0],
          [131.77899, 33.16153, 76.0],
          [131.77929, 33.16147, 76.0],
          [131.77964, 33.16131, 76.75],
          [131.78018, 33.16099, 74.25],
          [131.78038, 33.16089, 72.0],
          [131.78043, 33.16087, 71.5],
          [131.78049, 33.16085, 71.5],
          [131.78069, 33.16080, 72.0],
          [131.78088, 33.16078, 72.5],
          [131.78116, 33.16077, 73.25],
          [131.78142, 33.16078, 74.0],
          [131.78226, 33.16095, 74.0],
          [131.78395, 33.16133, 61.5],
          [131.78443, 33.16137, 55.75],
          [131.78474, 33.16136, 52.5],
          [131.78501, 33.16131, 51.75],
          [131.78529, 33.16120, 50.25],
          [131.78561, 33.16099, 48.25],
          [131.78581, 33.16076, 46.5],
          [131.78592, 33.16054, 44.75],
          [131.78638, 33.15875, 47.75],
          [131.78652, 33.15847, 44.75],
          [131.78677, 33.15815, 44.0],
          [131.78702, 33.15794, 44.25],
          [131.78728, 33.15778, 40.25],
          [131.78761, 33.15765, 34.0],
          [131.78782, 33.15760, 30.5],
          [131.78812, 33.15755, 24.5],
          [131.78870, 33.15750, 17.25],
          [131.78905, 33.15744, 14.75],
          [131.78928, 33.15737, 14.0],
          [131.78942, 33.15733, 13.75],
          [131.78945, 33.15732, 13.75],
          [131.78957, 33.15725, 13.75],
          [131.78961, 33.15723, 13.75],
          [131.78971, 33.15717, 13.5],
          [131.79042, 33.15665, 16.25],
          [131.79025, 33.15644, 14.5],
          [131.78999, 33.15612, 12.0],
          [131.78987, 33.15599, 11.75],
          [131.78977, 33.15589, 11.5],
          [131.79009, 33.15560, 11.0],
          [131.79017, 33.15546, 11.0],
          [131.79019, 33.15533, 10.75],
          [131.79016, 33.15515, 10.25],
          [131.78987, 33.15379, 10.25],
          [131.78978, 33.15276, 11.5],
          [131.78979, 33.15262, 11.5],
          [131.78985, 33.15238, 10.75],
          [131.78987, 33.15231, 10.5],
          [131.79056, 33.15056, 10.25],
          [131.79055, 33.15035, 11.25],
          [131.79047, 33.15019, 11.25],
          [131.79012, 33.14978, 8.75],
          [131.78997, 33.14960, 7.75],
          [131.78992, 33.14950, 7.75],
          [131.78990, 33.14943, 7.75],
          [131.78990, 33.14936, 7.75],
          [131.78991, 33.14923, 7.75],
          [131.78993, 33.14915, 7.75],
          [131.78993, 33.14913, 8.0],
          [131.78995, 33.14904, 8.0],
          [131.79016, 33.14816, 9.0],
          [131.79048, 33.14669, 7.0],
          [131.79052, 33.14656, 7.25],
          [131.79058, 33.14625, 7.75],
          [131.79059, 33.14607, 7.75],
          [131.79059, 33.14603, 7.75],
          [131.79058, 33.14580, 8.0],
          [131.79058, 33.14575, 8.0],
          [131.79056, 33.14549, 7.75],
          [131.79048, 33.14504, 7.25],
          [131.79025, 33.14355, 7.0],
          [131.79028, 33.14332, 6.75],
          [131.79021, 33.14321, 6.5],
          [131.79015, 33.14309, 6.25],
          [131.79010, 33.14299, 6.0],
          [131.79007, 33.14290, 5.75],
          [131.79001, 33.14269, 4.75],
          [131.78997, 33.14249, 4.0],
          [131.78994, 33.14237, 4.25],
          [131.78979, 33.14171, 4.5],
          [131.78968, 33.14124, 5.25],
          [131.78956, 33.14072, 5.75],
          [131.78953, 33.14059, 5.75],
          [131.78919, 33.13896, 3.0],
          [131.78916, 33.13880, 3.0],
          [131.78892, 33.13763, 1.0],
          [131.78888, 33.13750, 1.0],
          [131.78879, 33.13710, 1.5],
          [131.78869, 33.13655, 2.25],
          [131.78868, 33.13631, 2.5],
          [131.78868, 33.13625, 2.5],
          [131.78882, 33.13532, 3.5],
          [131.78884, 33.13516, 3.75],
          [131.78886, 33.13502, 3.75],
          [131.78895, 33.13452, 4.25],
          [131.78899, 33.13377, 4.25],
          [131.78904, 33.13303, 4.0],
          [131.78908, 33.13249, 4.0],
          [131.78913, 33.13197, 4.5],
          [131.78913, 33.13194, 4.5],
          [131.78916, 33.13174, 4.75],
          [131.78925, 33.13080, 2.75],
          [131.78932, 33.13017, 2.25],
          [131.78933, 33.13012, 2.25],
          [131.78935, 33.13000, 2.0],
          [131.78937, 33.12987, 2.0],
          [131.78950, 33.12912, 2.25],
          [131.78957, 33.12885, 2.5],
          [131.78965, 33.12857, 2.75],
          [131.78968, 33.12827, 2.75],
          [131.78968, 33.12821, 2.75],
          [131.78967, 33.12818, 2.75],
          [131.78959, 33.12773, 2.5],
          [131.78958, 33.12771, 2.5],
          [131.78955, 33.12767, 2.5],
          [131.78953, 33.12762, 2.5],
          [131.78964, 33.12759, 2.5],
          [131.78983, 33.12752, 2.75],
          [131.79007, 33.12741, 3.25],
          [131.79016, 33.12735, 3.5],
          [131.79058, 33.12711, 4.5],
          [131.79237, 33.12581, 3.0],
          [131.79353, 33.12497, 2.0],
          [131.79372, 33.12483, 2.0],
          [131.79457, 33.12424, 2.5],
          [131.79500, 33.12401, 3.25],
          [131.79508, 33.12396, 3.5],
          [131.79515, 33.12393, 3.5],
          [131.79593, 33.12352, 3.75],
          [131.79597, 33.12351, 3.75],
          [131.79674, 33.12312, 4.25],
          [131.79714, 33.12292, 3.75],
          [131.79779, 33.12259, 3.5],
          [131.79786, 33.12256, 3.75],
          [131.79840, 33.12229, 6.25],
          [131.79856, 33.12223, 6.25],
          [131.79872, 33.12218, 6.25],
          [131.79888, 33.12214, 6.5],
          [131.79902, 33.12212, 6.5],
          [131.79913, 33.12211, 6.5],
          [131.79938, 33.12210, 6.25],
          [131.79967, 33.12211, 5.75],
          [131.79984, 33.12212, 5.5],
          [131.80002, 33.12213, 5.5],
          [131.80015, 33.12214, 5.25],
          [131.80044, 33.12216, 4.75],
          [131.80084, 33.12218, 4.25],
          [131.80253, 33.12248, 4.5],
          [131.80264, 33.12250, 5.5],
          [131.80424, 33.12281, 9.5],
          [131.80436, 33.12283, 9.25],
          [131.80493, 33.12294, 7.5],
          [131.80541, 33.12303, 5.5],
          [131.80556, 33.12306, 5.0],
          [131.80566, 33.12309, 4.75],
          [131.80638, 33.12323, 4.0],
          [131.80682, 33.12331, 4.25],
          [131.80719, 33.12338, 5.0],
          [131.80723, 33.12339, 5.25],
          [131.80801, 33.12354, 3.75],
          [131.80821, 33.12358, 3.25],
          [131.80882, 33.12366, 3.0],
          [131.80950, 33.12376, 3.25],
          [131.81071, 33.12393, -0.25],
          [131.81067, 33.12406, -0.5],
          [131.81053, 33.12473, -1.0],
          [131.81045, 33.12510, -0.75],
          [131.81045, 33.12519, -0.5],
          [131.81057, 33.12561, 0.75],
          [131.80973, 33.12580, 1.25],
          [131.80968, 33.12582, 1.25],
          [131.80964, 33.12586, 1.25],
          [131.80962, 33.12592, 1.25],
          [131.80980, 33.12654, 0.0],
          [131.80983, 33.12658, 0.0],
          [131.80990, 33.12660, 0.0],
          [131.80995, 33.12661, 0.0],
          [131.81053, 33.12648],
          [131.81123, 33.12636],
          [131.81203, 33.12627],
          [131.81290, 33.12646],
          [131.81328, 33.12667]
        ]
      }
    }
  ]
}
