{
  "type": "FeatureCollection",
  "features": [
    {
      "type": "Feature",
      "properties": {
        "creator": "BRouter-1.7.10",
        "name": "brouter_fastbike-asia-pacific_0",
        "track-length": "28246",
        "filtered ascend": "30",
        "plain-ascend": "0",
        "total-time": "4969",
        "total-energy": "495604",
        "cost": "38302",
        "messages": [
          ["Longitude", "Latitude", "Elevation", "Distance", "CostPerKm", "ElevCost", "TurnCost", "NodeCost", "InitialCost", "WayTags", "NodeTags", "Time", "Energy"],
          ["131885771", "33244780", "5", "271", "1130", "569", "127", "0", "0", "highway=secondary estimated_traffic_class=3", "estimated_crossing_class=2", "38", "3208"],
          ["131885362", "33244955", "6", "43", "1130", "0", "0", "0", "0", "highway=secondary estimated_traffic_class=3", "estimated_crossing_class=2", "42", "3232"],
          ["131884986", "33245036", "8", "37", "1130", "0", "1", "0", "0", "highway=secondary estimated_traffic_class=3", "estimated_crossing_class=2", "45", "3611"],
          ["131880124", "33244637", "9", "500", "1130", "0", "18", "0", "0", "highway=secondary estimated_traffic_class=3", "estimated_crossing_class=2", "128", "11868"],
          ["131879844", "33245656", "4", "118", "1130", "0", "8", "0", "0", "highway=secondary estimated_traffic_class=3", "highway=crossing estimated_crossing_class=2", "144", "13445"],
          ["131879827", "33245701", "4", "5", "1130", "0", "0", "0", "0", "highway=secondary estimated_traffic_class=3", "estimated_crossing_class=2", "144", "13493"],
          ["131879528", "33245935", "2", "38", "1130", "0", "6", "0", "0", "highway=secondary estimated_traffic_class=3", "estimated_crossing_class=2", "147", "13822"],
          ["131878904", "33246183", "3", "64", "1130", "0", "0", "0", "0", "highway=secondary estimated_traffic_class=3", "estimated_crossing_class=2", "154", "14504"],
          ["131878579", "33246231", "4", "31", "1130", "0", "1", "0", "0", "highway=secondary estimated_traffic_class=3", "estimated_crossing_class=2", "159", "14996"],
          ["131877890", "33246207", "4", "65", "1130", "0", "1", "0", "0", "highway=secondary estimated_traffic_class=3", "estimated_crossing_class=2", "166", "15680"],
          ["131877624", "33246171", "4", "25", "1130", "0", "0", "0", "0", "highway=secondary estimated_traffic_class=3", "estimated_crossing_class=2", "169", "15957"],
          ["131877416", "33246129", "4", "20", "1130", "0", "0", "0", "0", "highway=secondary estimated_traffic_class=3", "estimated_crossing_class=2", "171", "16195"],
          ["131877169", "33246024", "4", "26", "1130", "0", "2", "0", "0", "highway=secondary estimated_traffic_class=3", "highway=crossing", "175", "16559"],
          ["131876947", "33245929", "5", "23", "1130", "0", "0", "0", "0", "highway=secondary estimated_traffic_class=3", "estimated_crossing_class=2", "179", "16934"],
          ["131876795", "33246057", "6", "20", "1130", "0", "62", "0", "0", "highway=secondary estimated_traffic_class=3", "estimated_crossing_class=2", "183", "17413"],
          ["131876751", "33246094", "6", "6", "1130", "0", "0", "0", "0", "highway=secondary estimated_traffic_class=3", "estimated_crossing_class=2", "185", "17560"],
          ["131876523", "33246310", "9", "32", "1100", "0", "0", "0", "0", "reversedirection=yes highway=unclassified", "highway=crossing", "191", "18200"],
          ["131876229", "33247086", "12", "93", "1100", "0", "6", "0", "0", "reversedirection=yes highway=unclassified", "highway=crossing", "224", "21482"],
          ["131876142", "33247429", "11", "39", "1100", "0", "1", "0", "0", "reversedirection=yes highway=unclassified", "highway=crossing", "232", "22263"],
          ["131875971", "33247844", "8", "49", "1100", "0", "0", "0", "0", "reversedirection=yes highway=unclassified", "", "242", "23238"],
          ["131875640", "33248215", "5", "52", "1100", "0", "4", "0", "0", "highway=unclassified", "", "247", "23802"],
          ["131874571", "33249044", "3", "139", "1100", "0", "19", "20", "0", "reversedirection=yes highway=unclassified", "highway=traffic_signals estimated_crossing_class=0 traffic_signals=signal", "262", "25309"],
          ["131872340", "33249066", "4", "237", "1000", "0", "9", "0", "0", "highway=tertiary estimated_traffic_class=2", "", "296", "28645"],
          ["131869809", "33248469", "4", "278", "1100", "0", "109", "0", "0", "reversedirection=yes highway=unclassified", "", "342", "33240"],
          ["131869364", "33248506", "5", "42", "1500", "0", "76", "0", "0", "reversedirection=yes highway=trunk", "highway=crossing", "349", "33944"],
          ["131867297", "33248698", "5", "193", "1500", "0", "0", "0", "0", "reversedirection=yes highway=trunk", "highway=crossing", "381", "37184"],
          ["131867171", "33248709", "5", "12", "1500", "0", "0", "0", "0", "reversedirection=yes highway=trunk", "", "383", "37385"],
          ["131866119", "33248521", "6", "101", "1100", "0", "17", "0", "0", "highway=unclassified", "", "400", "39082"],
          ["131864573", "33248995", "5", "160", "1100", "0", "2", "0", "0", "reversedirection=yes highway=unclassified", "highway=crossing", "435", "42594"],
          ["131864508", "33249045", "5", "8", "1100", "0", "0", "0", "0", "reversedirection=yes highway=unclassified", "", "437", "42776"],
          ["131863892", "33249774", "6", "104", "1100", "0", "23", "0", "0", "highway=unclassified", "", "461", "45213"],
          ["131863150", "33250276", "12", "89", "1500", "0", "53", "0", "0", "reversedirection=yes highway=trunk", "", "501", "49216"],
          ["131850905", "33251764", "13", "1165", "1500", "0", "0", "0", "0", "highway=trunk", "", "738", "72880"],
          ["131846257", "33250940", "15", "449", "1500", "127", "0", "0", "0", "highway=trunk surface=concrete", "", "833", "82376"],
          ["131842651", "33249205", "10", "389", "1500", "241", "0", "0", "0", "reversedirection=yes highway=trunk", "", "901", "88813"],
          ["131840484", "33248106", "6", "238", "1500", "0", "1", "0", "0", "highway=trunk", "", "931", "91835"],
          ["131840002", "33248014", "5", "47", "1500", "0", "3", "0", "0", "reversedirection=yes highway=trunk", "", "939", "92575"],
          ["131832495", "33246883", "14", "753", "1200", "0", "76", "0", "0", "reversedirection=yes highway=residential", "", "1073", "105951"],
          ["131832532", "33247092", "15", "23", "1100", "0", "31", "0", "0", "highway=unclassified", "", "1078", "106498"],
          ["131826472", "33246743", "9", "649", "1500", "0", "88", "0", "0", "highway=trunk", "", "1210", "119680"],
          ["131801391", "33239768", "20", "2519", "1300", "0", "118", "0", "0", "reversedirection=yes highway=cycleway", "", "1665", "165191"],
          ["131796751", "33238659", "10", "482", "1500", "0", "20", "20", "0", "highway=trunk", "highway=traffic_signals traffic_signals:direction=both traffic_signals=signal", "1747", "173388"],
          ["131790922", "33239981", "3", "564", "1500", "0", "0", "20", "0", "highway=trunk", "highway=traffic_signals traffic_signals:direction=both traffic_signals=signal", "1819", "180562"],
          ["131778750", "33238565", "12", "1156", "1500", "0", "7", "0", "0", "highway=trunk", "", "2066", "205302"],
          ["131773093", "33239060", "5", "569", "1000", "0", "54", "0", "0", "reversedirection=yes highway=tertiary estimated_traffic_class=2", "", "2142", "212942"],
          ["131770740", "33240514", "4", "294", "1200", "0", "46", "0", "0", "highway=residential oneway=yes", "", "2183", "217045"],
          ["131767380", "33240106", "4", "317", "1000", "0", "90", "0", "0", "highway=tertiary surface=asphalt estimated_traffic_class=2 oneway=yes", "highway=crossing crossing=marked", "2237", "222361"],
          ["131759566", "33239892", "5", "730", "1000", "0", "0", "20", "0", "highway=tertiary surface=asphalt estimated_traffic_class=2 oneway=yes", "highway=traffic_signals traffic_signals=signal", "2362", "234954"],
          ["131754510", "33240449", "9", "475", "1000", "0", "0", "20", "0", "highway=tertiary surface=asphalt estimated_traffic_class=2 oneway=yes", "highway=traffic_signals traffic_signals=signal", "2446", "243320"],
          ["131753571", "33240633", "10", "90", "1000", "0", "0", "0", "0", "highway=tertiary surface=asphalt estimated_traffic_class=2 oneway=yes", "", "2461", "244834"],
          ["131751227", "33241190", "12", "227", "1000", "0", "0", "0", "0", "highway=tertiary estimated_traffic_class=2 oneway=yes", "", "2503", "248992"],
          ["131744773", "33243448", "12", "651", "1000", "0", "0", "20", "0", "highway=tertiary surface=asphalt estimated_traffic_class=2 oneway=yes", "highway=traffic_signals traffic_signals=signal", "2642", "262928"],
          ["131744650", "33243492", "11", "12", "1000", "0", "0", "0", "0", "highway=tertiary surface=asphalt estimated_traffic_class=2 oneway=yes", "highway=crossing", "2644", "263111"],
          ["131739632", "33245350", "6", "511", "1000", "0", "0", "0", "0", "highway=tertiary surface=asphalt estimated_traffic_class=2 oneway=yes", "highway=crossing", "2713", "270042"],
          ["131739463", "33245412", "6", "17", "1000", "0", "0", "20", "0", "highway=tertiary surface=asphalt estimated_traffic_class=2 oneway=yes", "highway=traffic_signals estimated_crossing_class=0 traffic_signals=signal", "2716", "270289"],
          ["131739341", "33245462", "6", "13", "1230", "0", "0", "20", "0", "highway=primary surface=asphalt estimated_traffic_class=3 oneway=yes", "highway=traffic_signals traffic_signals=signal", "2718", "270471"],
          ["131739195", "33245517", "5", "15", "1230", "0", "0", "20", "0", "highway=primary surface=asphalt estimated_traffic_class=3 oneway=yes", "highway=crossing estimated_crossing_class=0 crossing=traffic_signals", "2720", "270675"],
          ["131732848", "33248279", "8", "668", "1230", "0", "0", "20", "0", "highway=primary surface=asphalt estimated_traffic_class=3 oneway=yes", "highway=traffic_signals estimated_crossing_class=0 traffic_signals=signal", "2848", "283493"],
          ["131732715", "33248348", "7", "15", "1230", "0", "0", "0", "0", "highway=primary surface=asphalt estimated_traffic_class=3 oneway=yes", "highway=crossing estimated_crossing_class=0", "2851", "283805"],
          ["131728543", "33250517", "6", "456", "1230", "0", "0", "0", "0", "highway=primary surface=asphalt estimated_traffic_class=3 oneway=yes", "estimated_crossing_class=3", "2920", "290693"],
          ["131725587", "33252069", "9", "325", "1230", "0", "0", "0", "0", "highway=primary surface=asphalt estimated_traffic_class=3 oneway=yes", "highway=crossing estimated_crossing_class=0", "2985", "297216"],
          ["131725464", "33252134", "8", "14", "1230", "0", "0", "20", "0", "highway=primary surface=asphalt estimated_traffic_class=3 oneway=yes", "highway=traffic_signals estimated_crossing_class=0 traffic_signals=signal", "2987", "297441"],
          ["131725368", "33252184", "8", "11", "1230", "0", "0", "20", "0", "highway=primary surface=asphalt estimated_traffic_class=3 oneway=yes", "highway=traffic_signals estimated_crossing_class=0 traffic_signals=signal", "2989", "297619"],
          ["131722158", "33253664", "6", "342", "1230", "0", "0", "20", "0", "highway=primary surface=asphalt estimated_traffic_class=3 oneway=yes", "highway=traffic_signals estimated_crossing_class=0 traffic_signals=signal", "3041", "302778"],
          ["131722001", "33253722", "5", "16", "1230", "0", "0", "0", "0", "highway=primary surface=asphalt estimated_traffic_class=3 oneway=yes", "highway=crossing estimated_crossing_class=0", "3043", "302977"],
          ["131720941", "33254105", "3", "108", "1230", "0", "0", "0", "0", "highway=primary surface=asphalt estimated_traffic_class=3 oneway=yes", "estimated_crossing_class=3", "3059", "304613"],
          ["131718761", "33254736", "10", "216", "1230", "0", "0", "0", "0", "highway=primary surface=asphalt estimated_traffic_class=3 oneway=yes", "highway=crossing estimated_crossing_class=3 crossing=marked", "3099", "308572"],
          ["131718553", "33254785", "10", "20", "1230", "0", "0", "0", "0", "highway=primary surface=asphalt estimated_traffic_class=3 oneway=yes", "estimated_crossing_class=3", "3103", "308990"],
          ["131718347", "33254832", "11", "20", "1230", "0", "0", "0", "0", "highway=primary surface=asphalt estimated_traffic_class=3 oneway=yes", "highway=crossing estimated_crossing_class=3 crossing=marked", "3108", "309476"],
          ["131716539", "33255160", "6", "173", "1230", "0", "0", "20", "0", "highway=primary surface=asphalt estimated_traffic_class=3 oneway=yes", "highway=traffic_signals traffic_signals=signal", "3137", "312453"],
          ["131714532", "33255409", "7", "189", "1260", "0", "0", "0", "0", "highway=primary surface=asphalt estimated_traffic_class=4 oneway=yes", "", "3169", "315626"],
          ["131712246", "33255517", "4", "213", "1260", "0", "0", "0", "0", "highway=primary estimated_traffic_class=4 oneway=yes", "estimated_crossing_class=3", "3198", "318522"],
          ["131708023", "33255312", "4", "394", "1260", "0", "0", "20", "0", "highway=primary estimated_traffic_class=4 oneway=yes", "highway=traffic_signals estimated_crossing_class=0 traffic_signals=signal", "3263", "325004"],
          ["131707269", "33255264", "5", "70", "1260", "0", "0", "0", "0", "highway=primary estimated_traffic_class=4 oneway=yes", "estimated_crossing_class=3", "3276", "326332"],
          ["131706915", "33255241", "6", "33", "1260", "0", "0", "0", "0", "highway=primary estimated_traffic_class=4 oneway=yes", "", "3284", "327088"],
          ["131694824", "33254470", "4", "1130", "1260", "0", "0", "0", "0", "highway=primary surface=asphalt estimated_traffic_class=4 oneway=yes", "estimated_crossing_class=4", "3477", "346376"],
          ["131694530", "33254451", "3", "27", "1260", "0", "0", "20", "0", "highway=primary surface=asphalt estimated_traffic_class=4 oneway=yes", "highway=traffic_signals estimated_crossing_class=0 traffic_signals=signal", "3480", "346721"],
          ["131694137", "33254426", "3", "37", "1260", "0", "0", "0", "0", "highway=primary surface=asphalt estimated_traffic_class=4 oneway=yes", "estimated_crossing_class=4", "3485", "347183"],
          ["131691733", "33254350", "2", "224", "1260", "0", "0", "0", "0", "highway=primary surface=asphalt estimated_traffic_class=4 oneway=yes", "", "3519", "350570"],
          ["131687550", "33254399", "2", "390", "1260", "0", "0", "0", "0", "highway=primary estimated_traffic_class=4 oneway=yes", "", "3588", "357499"],
          ["131686198", "33254399", "2", "126", "1260", "0", "0", "0", "0", "highway=primary surface=asphalt estimated_traffic_class=4 oneway=yes", "estimated_crossing_class=4", "3606", "359285"],
          ["131684850", "33254377", "3", "126", "1260", "0", "0", "20", "0", "highway=primary surface=asphalt estimated_traffic_class=4 oneway=yes", "highway=traffic_signals estimated_crossing_class=0 traffic_signals=signal", "3628", "361487"],
          ["131684809", "33254377", "3", "4", "1260", "0", "0", "0", "0", "highway=primary surface=asphalt estimated_traffic_class=4 oneway=yes", "highway=crossing estimated_crossing_class=0", "3628", "361561"],
          ["131683358", "33254385", "4", "135", "1260", "0", "0", "20", "0", "highway=primary surface=asphalt estimated_traffic_class=4 oneway=yes", "highway=traffic_signals estimated_crossing_class=0 traffic_signals=signal", "3655", "364243"],
          ["131683352", "33253352", "3", "115", "1030", "0", "90", "20", "0", "highway=tertiary surface=asphalt estimated_traffic_class=3", "highway=crossing crossing=traffic_signals", "3674", "366110"],
          ["131683351", "33253252", "3", "11", "1030", "0", "0", "20", "0", "highway=tertiary surface=asphalt estimated_traffic_class=3", "highway=traffic_signals traffic_signals:direction=both traffic_signals=signal", "3676", "366292"],
          ["131683351", "33253175", "3", "9", "1030", "0", "0", "0", "0", "highway=tertiary surface=asphalt estimated_traffic_class=3", "highway=crossing", "3677", "366431"],
          ["131683253", "33251326", "3", "205", "1030", "0", "0", "20", "0", "highway=tertiary surface=asphalt estimated_traffic_class=3", "highway=traffic_signals traffic_signals:direction=both traffic_signals=signal", "3708", "369569"],
          ["131679963", "33251426", "2", "307", "1030", "0", "83", "20", "0", "highway=tertiary surface=asphalt estimated_traffic_class=3", "highway=traffic_signals traffic_signals:direction=both traffic_signals=signal", "3760", "374677"],
          ["131676281", "33250991", "5", "354", "1030", "0", "2", "20", "0", "highway=tertiary surface=asphalt estimated_traffic_class=3", "highway=traffic_signals traffic_signals:direction=both traffic_signals=signal", "3830", "381689"],
          ["131671588", "33250278", "4", "453", "1030", "0", "4", "20", "0", "highway=tertiary surface=asphalt estimated_traffic_class=3", "highway=traffic_signals traffic_signals:direction=both traffic_signals=signal", "3916", "390277"],
          ["131669447", "33250205", "4", "200", "1030", "0", "0", "20", "0", "highway=tertiary surface=asphalt estimated_traffic_class=3", "highway=traffic_signals traffic_signals:direction=both traffic_signals=signal", "3942", "392920"],
          ["131661143", "33248160", "5", "807", "1030", "0", "0", "20", "0", "highway=tertiary surface=asphalt estimated_traffic_class=3", "highway=traffic_signals estimated_crossing_class=0 traffic_signals:direction=both traffic_signals=signal", "4080", "406728"],
          ["131658939", "33247880", "4", "207", "1030", "0", "0", "20", "0", "highway=tertiary surface=asphalt estimated_traffic_class=3", "highway=traffic_signals traffic_signals:direction=both traffic_signals=signal", "4117", "410438"],
          ["131657308", "33247673", "5", "154", "1030", "0", "0", "20", "0", "highway=tertiary surface=asphalt estimated_traffic_class=3", "highway=traffic_signals traffic_signals:direction=both traffic_signals=signal", "4143", "413076"],
          ["131654513", "33247317", "5", "264", "1030", "0", "0", "0", "0", "highway=tertiary surface=asphalt estimated_traffic_class=3", "", "4191", "417779"],
          ["131653845", "33247232", "6", "63", "1090", "0", "0", "20", "0", "highway=tertiary surface=asphalt estimated_traffic_class=5", "highway=traffic_signals traffic_signals=signal", "4203", "419077"],
          ["131653629", "33247204", "7", "20", "1090", "0", "0", "20", "0", "highway=tertiary surface=asphalt estimated_traffic_class=5", "highway=traffic_signals traffic_signals=signal", "4208", "419513"],
          ["131649164", "33246634", "3", "421", "1090", "0", "0", "20", "0", "highway=tertiary surface=asphalt estimated_traffic_class=5", "highway=traffic_signals traffic_signals=signal", "4268", "425549"],
          ["131645704", "33246193", "3", "326", "1090", "0", "0", "20", "0", "highway=tertiary surface=asphalt estimated_traffic_class=5", "highway=traffic_signals traffic_signals=signal", "4327", "431451"],
          ["131645607", "33246180", "3", "9", "1090", "0", "0", "20", "0", "highway=tertiary surface=asphalt estimated_traffic_class=5", "highway=traffic_signals traffic_signals=signal", "4329", "431585"],
          ["131641331", "33245635", "4", "403", "1090", "0", "0", "20", "0", "highway=tertiary surface=asphalt estimated_traffic_class=5", "highway=traffic_signals traffic_signals:direction=both", "4405", "439222"],
          ["131640081", "33245475", "3", "118", "1090", "0", "0", "20", "0", "highway=tertiary surface=asphalt estimated_traffic_class=5", "highway=traffic_signals traffic_signals:direction=both traffic_signals=signal", "4421", "440815"],
          ["131638142", "33245228", "3", "183", "1090", "0", "0", "20", "0", "highway=tertiary surface=asphalt estimated_traffic_class=5", "highway=traffic_signals estimated_crossing_class=0", "4448", "443580"],
          ["131637750", "33243861", "4", "156", "1190", "0", "56", "20", "0", "highway=secondary surface=asphalt estimated_traffic_class=5 oneway=yes", "highway=traffic_signals estimated_crossing_class=0", "4478", "446528"],
          ["131637541", "33243135", "5", "83", "1190", "0", "0", "0", "0", "highway=secondary surface=asphalt estimated_traffic_class=5 oneway=yes", "estimated_crossing_class=5", "4496", "448356"],
          ["131637433", "33242758", "7", "43", "1190", "0", "0", "0", "0", "highway=secondary surface=asphalt estimated_traffic_class=5 oneway=yes", "estimated_crossing_class=5", "4508", "449522"],
          ["131637219", "33242014", "8", "85", "1190", "0", "0", "20", "0", "highway=secondary surface=asphalt estimated_traffic_class=5 oneway=yes", "highway=traffic_signals", "4530", "451754"],
          ["131637197", "33241924", "8", "10", "1190", "0", "0", "20", "0", "highway=secondary surface=asphalt estimated_traffic_class=5 oneway=yes", "highway=traffic_signals", "4533", "451989"],
          ["131637102", "33241929", "8", "9", "1500", "0", "77", "20", "0", "highway=trunk surface=asphalt oneway=yes", "highway=traffic_signals traffic_signals=signal", "4535", "452195"],
          ["131635989", "33242014", "6", "104", "1500", "0", "0", "0", "0", "highway=trunk surface=asphalt oneway=yes", "", "4551", "453823"],
          ["131635469", "33242066", "5", "49", "1500", "0", "0", "0", "0", "highway=trunk oneway=yes", "", "4557", "454424"],
          ["131635232", "33242087", "5", "22", "1500", "0", "0", "0", "0", "highway=trunk surface=asphalt oneway=yes", "", "4560", "454704"],
          ["131634710", "33242138", "5", "49", "1500", "0", "0", "0", "0", "highway=trunk oneway=yes", "highway=crossing", "4566", "455375"],
          ["131634460", "33242157", "5", "23", "1500", "0", "0", "20", "0", "highway=trunk oneway=yes", "highway=traffic_signals traffic_signals=signal", "4570", "455729"],
          ["131634316", "33242171", "5", "14", "1500", "0", "0", "20", "0", "highway=trunk oneway=yes", "highway=traffic_signals traffic_signals=signal", "4572", "455948"],
          ["131634172", "33242188", "5", "14", "1500", "0", "0", "0", "0", "highway=trunk oneway=yes", "highway=crossing", "4574", "456169"],
          ["131633598", "33242237", "5", "54", "1500", "0", "0", "0", "0", "highway=trunk oneway=yes", "", "4583", "456993"],
          ["131633577", "33242199", "5", "5", "1200", "0", "60", "0", "0", "highway=residential surface=asphalt oneway=yes", "highway=crossing crossing=unmarked", "4583", "457071"],
          ["131628709", "33240999", "3", "492", "1200", "0", "12", "0", "0", "highway=residential surface=asphalt oneway=yes", "", "4664", "465141"],
          ["131624796", "33239871", "7", "386", "1200", "0", "0", "0", "0", "reversedirection=yes highway=residential", "", "4744", "473095"],
          ["131624675", "33240034", "7", "21", "1200", "0", "66", "0", "0", "highway=residential", "", "4748", "473517"],
          ["131623904", "33239826", "6", "75", "1500", "0", "68", "20", "0", "highway=trunk oneway=yes", "highway=traffic_signals traffic_signals=signal", "4759", "474684"],
          ["131623786", "33239793", "5", "12", "1500", "0", "0", "0", "0", "highway=trunk oneway=yes", "highway=crossing", "4761", "474845"],
          ["131623701", "33239770", "5", "8", "1500", "0", "0", "0", "0", "highway=trunk oneway=yes", "", "4762", "474939"],
          ["131620375", "33238895", "15", "325", "1500", "0", "3", "20", "0", "highway=trunk surface=asphalt oneway=yes", "highway=traffic_signals", "4840", "482735"],
          ["131620212", "33238243", "15", "80", "1060", "0", "142", "0", "0", "highway=tertiary estimated_traffic_class=4", "", "4860", "484693"],
          ["131618779", "33237927", "7", "139", "1060", "0", "12", "0", "0", "reversedirection=yes highway=tertiary estimated_traffic_class=4", "", "4881", "486860"],
          ["131616474", "33237450", "5", "221", "1100", "0", "0", "0", "0", "highway=unclassified surface=asphalt", "", "4912", "489904"],
          ["131615801", "33237379", "4", "63", "1100", "0", "1", "20", "0", "reversedirection=yes highway=unclassified surface=asphalt", "highway=traffic_signals traffic_signals:direction=both traffic_signals=signal", "4920", "490776"],
          ["131615799", "33236365", "4", "112", "1060", "0", "66", "0", "0", "reversedirection=yes highway=tertiary surface=asphalt estimated_traffic_class=4", "", "4936", "492299"],
          ["131613594", "33236335", "7", "206", "1100", "0", "90", "0", "0", "highway=unclassified surface=asphalt oneway=yes", "", "4969", "495604"]
        ],
        "times": [0.168,1.512,5.208,6.216,7.224,8.568,9.744,11.76,13.272,18.144,22.512,25.033,29.737,32.089,32.729,33.369,35.929,36.409,37.049,37.689,38.569,39.929,41.449,42.009,43.485,44.944,45.796,47.117,48.244,49.683,66.939,69.899,72.163,74.153,76.164,78.039,81.742,85.183,86.977,89.163,91.506,93.79,95.823,98.016,99.781,121.384,125.579,127.142,128.355,129.566,131.635,133.012,134.214,139.258,140.135,144.124,144.6,145.327,146.329,147.887,148.807,150.795,152.902,154.708,159.629,162.132,164.642,166.474,169.242,171.62,175.257,179.004,183.791,185.262,190.272,191.662,192.152,193.804,206.888,208.847,211.618,213.89,221.028,224.477,228.206,230.581,232.285,232.966,235.888,236.773,242.033,243.993,247.678,248.527,249.952,254.488,256.906,260.546,261.958,262.744,264.3,269.377,273.076,274.035,275.146,276.414,277.7,281.358,296.095,298.505,299.635,300.443,303.041,304.672,308.931,312.225,318.348,336.354,341.209,342.046,349.085,356.968,359.486,381.481,382.993,383.496,385.008,386.184,400.462,404.326,407.9,411.082,416.85,422.319,424.239,429.053,435.576,437.398,442.836,448.51,452.521,457.892,459.164,460.164,461.766,471.797,482.965,501.783,528.984,546.525,557.721,574.952,582.948,598.326,717.429,738.409,748.506,756.38,762.42,769.009,805.838,813.291,819.817,828.39,833.347,866.542,891.603,896.411,901.771,904.464,907.593,915.077,924.282,931.991,935.74,937.795,939.387,940.506,942.755,964.921,974.008,975.75,979.006,980.886,984.616,997.715,1000.264,1003.167,1012.412,1014.903,1015.918,1039.482,1044.876,1048.652,1054.225,1061.73,1073.123,1078.589,1083.432,1091.169,1097.299,1108.119,1113.752,1118.442,1121.929,1127.198,1131.155,1156.719,1164.648,1169.191,1175.415,1178.506,1180.505,1184.964,1189.687,1193.169,1203.014,1205.63,1207.6,1210.398,1211.553,1214.337,1216.34,1218.975,1220.764,1223.187,1225.336,1227.511,1230.029,1233.89,1246.755,1249.274,1251.297,1253.155,1254.89,1257.64,1274.896,1279.363,1287.636,1296.915,1308.071,1320.204,1326.338,1333.731,1341.561,1355.095,1363.57,1383.236,1397.039,1406.827,1426.81,1462.745,1470.973,1475.859,1479.967,1482.931,1488.719,1501.347,1508.16,1513.162,1517.399,1521.549,1531.99,1542.41,1545.67,1548.135,1553.902,1558.255,1565.156,1626.33,1631.372,1657.23,1661.712,1665.44,1669.04,1689.793,1724.785,1728.612,1730.635,1734.516,1735.054,1738.022,1742.167,1747.396,1754.166,1759.668,1770.631,1771.339,1775.446,1775.968,1807.44,1816.044,1819.142,1824.777,1837.294,1848.576,1871.376,1884.157,1903.693,1939.266,1944.298,1949.473,1968.191,1975.033,1982.053,2043.372,2053.068,2056.945,2062.255,2066.478,2071.054,2080.053,2082.252,2084.642,2090.161,2091.483,2092.676,2095.521,2097.229,2101.211,2102.609,2112.915,2118.918,2137.395,2138.334,2142.19,2142.861,2147.054,2162.347,2165.431,2169.415,2173.061,2176.717,2181.881,2183.884,2201.119,2207.659,2214.035,2219.574,2237.038,2296.171,2314.116,2320.266,2326.729,2338.228,2362.957,2393.508,2412.474,2425.878,2446.619,2461.758,2466.969,2480.919,2503.336,2506.229,2520.094,2537.236,2561.435,2623.858,2642.675,2644.504,2653.877,2668.942,2687.428,2713.803,2716.274,2718.093,2720.125,2793.681,2797.159,2803.669,2823.086,2848.296,2851.411,2901.386,2904.332,2917.337,2920.287,2985.508,2987.765,2989.546,3000.585,3011.09,3030.873,3041.128,3043.115,3059.471,3072.459,3080.104,3091.071,3099.061,3103.239,3108.096,3115.808,3128.48,3137.863,3146.754,3156.477,3169.589,3173.345,3184.258,3198.546,3208.288,3215.498,3222.385,3230.018,3263.363,3276.638,3284.199,3299.325,3301.318,3312.733,3315.577,3320.608,3414.556,3416.576,3421.592,3456.902,3477.063,3480.515,3485.127,3486.582,3519.003,3566.427,3588.284,3600.92,3606.134,3617.394,3628.16,3628.901,3655.712,3674.384,3676.2,3677.598,3690.595,3695.806,3700.795,3708.971,3726.501,3742.533,3760.042,3794.457,3803.872,3811.38,3830.16,3852.098,3856.165,3861.913,3868.043,3869.245,3905.727,3906.757,3916.03,3942.462,3948.583,3952.607,3957.843,3967.858,3986.981,3988.61,3997.376,4000.582,4021.528,4042.758,4056.83,4064.699,4080.513,4094.919,4117.603,4143.985,4168.797,4191.01,4203.993,4208.35,4220.397,4235.874,4250.506,4268.704,4299.572,4319.094,4327.712,4329.05,4337.237,4348.956,4352.329,4367.113,4388.124,4399.146,4405.4,4421.33,4439.245,4448.975,4478.452,4496.731,4508.389,4530.698,4533.051,4535.105,4548.056,4551.39,4555.346,4557.395,4560.19,4560.979,4566.907,4570.446,4572.632,4574.839,4583.079,4583.861,4584.174,4585.275,4590.526,4593.91,4598.626,4609.778,4609.939,4617.876,4621.808,4623.453,4625.266,4628.736,4639.853,4645.928,4651.687,4652.353,4655.017,4656.505,4658.253,4663.501,4664.563,4665.485,4672.38,4698.333,4726.052,4744.077,4748.305,4759.971,4761.583,4762.52,4835.212,4837.746,4840.461,4844.081,4846.309,4854.333,4858.934,4860.042,4870.09,4876.365,4880.703,4881.705,4889.511,4901.661,4904.603,4911.083,4912.136,4914.871,4920.845,4921.984,4936.08,4940.066,4940.55,4944.988,4963.336,4969.13]
      },
      "geometry": {
        "type": "LineString",
        "coordinates": [
          [131.88778, 33.24413, 7.75],
          [131.88772, 33.24409, 7.75],
          [131.88748, 33.24408, 7.75],
          [131.88743, 33.24405, 7.75],
          [131.88740, 33.24400, 7.75],
          [131.88739, 33.24393, 7.75],
          [131.88733, 33.24389, 7.75],
          [131.88721, 33.24386, 7.75],
          [131.88712, 33.24386, 7.75],
          [131.88681, 33.24389, 7.75],
          [131.88653, 33.24386, 7.75],
          [131.88638, 33.24388, 7.75],
          [131.88612, 33.24402, 7.75],
          [131.88602, 33.24412, 7.75],
          [131.88599, 33.24418, 7.75],
          [131.88597, 33.24426, 7.25],
          [131.88597, 33.24454, 7.0],
          [131.88595, 33.24459, 6.75],
          [131.88592, 33.24466, 6.0],
          [131.88586, 33.24471, 5.25],
          [131.88577, 33.24478, 5.0],
          [131.88561, 33.24485, 5.5],
          [131.88543, 33.24493, 6.0],
          [131.88536, 33.24495, 6.5],
          [131.88518, 33.24500, 7.25],
          [131.88505, 33.24503, 8.5],
          [131.88498, 33.24503, 8.75],
          [131.88489, 33.24504, 9.5],
          [131.88476, 33.24503, 10.0],
          [131.88462, 33.24501, 10.0],
          [131.88318, 33.24480, 11.5],
          [131.88297, 33.24475, 11.75],
          [131.88283, 33.24469, 12.0],
          [131.88272, 33.24463, 12.25],
          [131.88262, 33.24454, 12.25],
          [131.88253, 33.24446, 12.5],
          [131.88245, 33.24434, 12.5],
          [131.88238, 33.24425, 12.75],
          [131.88231, 33.24421, 12.5],
          [131.88222, 33.24416, 12.25],
          [131.88211, 33.24412, 12.25],
          [131.88200, 33.24409, 12.0],
          [131.88189, 33.24409, 11.75],
          [131.88178, 33.24410, 11.75],
          [131.88168, 33.24412, 11.5],
          [131.88047, 33.24442, 9.75],
          [131.88024, 33.24453, 9.5],
          [131.88017, 33.24459, 9.25],
          [131.88012, 33.24463, 9.25],
          [131.88007, 33.24468, 9.0],
          [131.88001, 33.24478, 8.75],
          [131.87998, 33.24485, 8.75],
          [131.87998, 33.24491, 8.75],
          [131.87999, 33.24521, 8.0],
          [131.87999, 33.24527, 8.25],
          [131.87984, 33.24565, 4.75],
          [131.87982, 33.24570, 4.5],
          [131.87978, 33.24576, 4.0],
          [131.87968, 33.24584, 3.0],
          [131.87952, 33.24593, 2.75],
          [131.87943, 33.24598, 2.75],
          [131.87923, 33.24607, 2.5],
          [131.87904, 33.24614, 3.0],
          [131.87890, 33.24618, 3.5],
          [131.87857, 33.24623, 4.25],
          [131.87832, 33.24625, 5.0],
          [131.87807, 33.24623, 4.5],
          [131.87789, 33.24620, 4.25],
          [131.87762, 33.24617, 4.0],
          [131.87741, 33.24612, 4.0],
          [131.87716, 33.24602, 4.5],
          [131.87694, 33.24592, 5.0],
          [131.87679, 33.24605, 6.5],
          [131.87675, 33.24609, 6.75],
          [131.87656, 33.24626, 9.0],
          [131.87652, 33.24631, 9.75],
          [131.87650, 33.24632, 10.0],
          [131.87646, 33.24636, 10.5],
          [131.87628, 33.24659, 13.0],
          [131.87626, 33.24664, 13.25],
          [131.87623, 33.24670, 13.5],
          [131.87622, 33.24675, 13.5],
          [131.87623, 33.24696, 13.0],
          [131.87622, 33.24708, 12.75],
          [131.87621, 33.24724, 12.25],
          [131.87618, 33.24734, 12.0],
          [131.87614, 33.24742, 11.5],
          [131.87612, 33.24746, 11.5],
          [131.87609, 33.24753, 11.0],
          [131.87608, 33.24756, 10.75],
          [131.87597, 33.24784, 8.5],
          [131.87589, 33.24797, 7.25],
          [131.87564, 33.24821, 5.75],
          [131.87561, 33.24828, 5.5],
          [131.87554, 33.24839, 5.0],
          [131.87519, 33.24863, 4.75],
          [131.87500, 33.24875, 4.25],
          [131.87472, 33.24893, 3.75],
          [131.87462, 33.24900, 3.25],
          [131.87457, 33.24904, 3.25],
          [131.87444, 33.24911, 3.25],
          [131.87408, 33.24934, 3.25],
          [131.87384, 33.24949, 3.5],
          [131.87377, 33.24952, 3.5],
          [131.87369, 33.24954, 3.5],
          [131.87359, 33.24954, 3.5],
          [131.87350, 33.24952, 3.5],
          [131.87325, 33.24943, 3.5],
          [131.87234, 33.24906, 4.0],
          [131.87221, 33.24898, 4.0],
          [131.87215, 33.24894, 4.0],
          [131.87211, 33.24892, 4.0],
          [131.87196, 33.24886, 4.0],
          [131.87185, 33.24883, 4.0],
          [131.87158, 33.24878, 4.25],
          [131.87139, 33.24870, 4.25],
          [131.87103, 33.24857, 4.25],
          [131.86990, 33.24877, 4.75],
          [131.86982, 33.24851, 4.75],
          [131.86980, 33.24846, 4.75],
          [131.86936, 33.24850, 5.0],
          [131.86886, 33.24854, 5.25],
          [131.86869, 33.24856, 5.25],
          [131.86729, 33.24869, 5.5],
          [131.86719, 33.24870, 5.75],
          [131.86717, 33.24870, 5.75],
          [131.86708, 33.24866, 5.75],
          [131.86701, 33.24863, 5.75],
          [131.86611, 33.24852, 6.0],
          [131.86587, 33.24851, 6.0],
          [131.86566, 33.24852, 6.25],
          [131.86546, 33.24855, 6.25],
          [131.86513, 33.24864, 6.25],
          [131.86498, 33.24870, 6.0],
          [131.86492, 33.24873, 6.0],
          [131.86478, 33.24882, 5.75],
          [131.86457, 33.24899, 5.5],
          [131.86450, 33.24904, 5.5],
          [131.86432, 33.24921, 5.5],
          [131.86413, 33.24937, 5.75],
          [131.86402, 33.24949, 6.25],
          [131.86388, 33.24963, 7.0],
          [131.86386, 33.24968, 7.0],
          [131.86387, 33.24971, 7.0],
          [131.86389, 33.24977, 6.75],
          [131.86364, 33.24995, 8.5],
          [131.86337, 33.25014, 12.5],
          [131.86315, 33.25027, 12.25],
          [131.86269, 33.25049, 12.25],
          [131.86226, 33.25068, 12.25],
          [131.86191, 33.25082, 12.25],
          [131.86118, 33.25104, 12.25],
          [131.86077, 33.25113, 12.0],
          [131.85990, 33.25122, 12.0],
          [131.85261, 33.25163, 11.5],
          [131.85090, 33.25176, 13.75],
          [131.85020, 33.25179, 14.75],
          [131.84968, 33.25180, 15.5],
          [131.84928, 33.25178, 16.0],
          [131.84885, 33.25173, 16.5],
          [131.84831, 33.25162, 17.5],
          [131.84778, 33.25148, 17.5],
          [131.84722, 33.25129, 16.75],
          [131.84659, 33.25106, 15.75],
          [131.84625, 33.25094, 15.5],
          [131.84424, 33.25014, 12.75],
          [131.84361, 33.24983, 12.0],
          [131.84320, 33.24958, 12.0],
          [131.84265, 33.24920, 10.75],
          [131.84242, 33.24902, 10.25],
          [131.84218, 33.24884, 9.75],
          [131.84163, 33.24851, 8.5],
          [131.84099, 33.24827, 7.25],
          [131.84048, 33.24810, 6.5],
          [131.84023, 33.24803, 6.0],
          [131.84010, 33.24800, 5.75],
          [131.84000, 33.24801, 5.75],
          [131.83995, 33.24796, 5.5],
          [131.83981, 33.24792, 5.25],
          [131.83862, 33.24751, 3.0],
          [131.83765, 33.24717, 3.25],
          [131.83747, 33.24712, 2.5],
          [131.83721, 33.24702, 3.0],
          [131.83707, 33.24697, 3.25],
          [131.83670, 33.24687, 4.25],
          [131.83574, 33.24657, 5.0],
          [131.83558, 33.24652, 5.25],
          [131.83540, 33.24650, 5.5],
          [131.83492, 33.24640, 6.25],
          [131.83479, 33.24642, 6.25],
          [131.83473, 33.24640, 6.5],
          [131.83371, 33.24638, 8.0],
          [131.83346, 33.24639, 8.5],
          [131.83330, 33.24641, 9.0],
          [131.83302, 33.24648, 11.5],
          [131.83279, 33.24659, 13.25],
          [131.83249, 33.24688, 14.75],
          [131.83253, 33.24709, 15.75],
          [131.83235, 33.24717, 16.5],
          [131.83221, 33.24730, 16.5],
          [131.83212, 33.24743, 16.25],
          [131.83197, 33.24771, 16.0],
          [131.83183, 33.24787, 15.75],
          [131.83168, 33.24799, 15.5],
          [131.83153, 33.24804, 15.25],
          [131.83127, 33.24804, 15.0],
          [131.83108, 33.24801, 15.0],
          [131.82973, 33.24751, 13.75],
          [131.82923, 33.24729, 13.0],
          [131.82898, 33.24717, 13.25],
          [131.82864, 33.24701, 13.25],
          [131.82848, 33.24693, 13.25],
          [131.82834, 33.24688, 12.5],
          [131.82810, 33.24681, 13.5],
          [131.82782, 33.24678, 13.5],
          [131.82758, 33.24678, 12.75],
          [131.82693, 33.24683, 11.0],
          [131.82676, 33.24681, 10.75],
          [131.82663, 33.24679, 10.25],
          [131.82647, 33.24674, 9.75],
          [131.82647, 33.24667, 9.75],
          [131.82632, 33.24654, 9.25],
          [131.82622, 33.24644, 9.75],
          [131.82609, 33.24633, 10.25],
          [131.82599, 33.24626, 10.75],
          [131.82586, 33.24617, 11.25],
          [131.82572, 33.24610, 11.75],
          [131.82558, 33.24606, 12.25],
          [131.82540, 33.24605, 13.0],
          [131.82519, 33.24608, 13.0],
          [131.82449, 33.24633, 13.0],
          [131.82432, 33.24639, 12.25],
          [131.82417, 33.24644, 11.75],
          [131.82399, 33.24645, 10.5],
          [131.82381, 33.24643, 9.75],
          [131.82358, 33.24635, 10.25],
          [131.82290, 33.24596, 13.0],
          [131.82263, 33.24588, 12.25],
          [131.82204, 33.24583, 11.75],
          [131.82144, 33.24580, 12.0],
          [131.82088, 33.24567, 13.0],
          [131.82002, 33.24542, 11.5],
          [131.81955, 33.24530, 11.0],
          [131.81903, 33.24515, 10.5],
          [131.81851, 33.24500, 10.25],
          [131.81772, 33.24479, 9.75],
          [131.81706, 33.24460, 9.75],
          [131.81629, 33.24438, 14.0],
          [131.81563, 33.24418, 17.75],
          [131.81529, 33.24409, 19.75],
          [131.81474, 33.24392, 18.25],
          [131.81316, 33.24349, 14.5],
          [131.81269, 33.24342, 13.5],
          [131.81241, 33.24337, 12.75],
          [131.81214, 33.24330, 12.25],
          [131.81191, 33.24322, 12.5],
          [131.81151, 33.24304, 13.0],
          [131.81065, 33.24280, 14.25],
          [131.81021, 33.24268, 15.0],
          [131.80990, 33.24258, 15.5],
          [131.80966, 33.24247, 15.75],
          [131.80945, 33.24238, 16.0],
          [131.80907, 33.24214, 15.5],
          [131.80863, 33.24188, 15.0],
          [131.80842, 33.24174, 15.0],
          [131.80825, 33.24164, 15.0],
          [131.80795, 33.24150, 16.25],
          [131.80778, 33.24142, 17.25],
          [131.80757, 33.24136, 19.0],
          [131.80377, 33.24035, 13.5],
          [131.80329, 33.24020, 11.0],
          [131.80176, 33.23981, 18.75],
          [131.80157, 33.23976, 20.25],
          [131.80139, 33.23976, 20.0],
          [131.80125, 33.23969, 20.5],
          [131.80013, 33.23916, 19.5],
          [131.79875, 33.23847, 18.75],
          [131.79845, 33.23837, 16.75],
          [131.79824, 33.23833, 15.25],
          [131.79794, 33.23831, 13.5],
          [131.79790, 33.23831, 13.25],
          [131.79761, 33.23835, 11.75],
          [131.79723, 33.23847, 11.25],
          [131.79675, 33.23865, 10.25],
          [131.79600, 33.23894, 7.25],
          [131.79544, 33.23908, 6.25],
          [131.79421, 33.23936, 3.0],
          [131.79415, 33.23937, 3.0],
          [131.79380, 33.23944, 3.0],
          [131.79375, 33.23945, 3.0],
          [131.79174, 33.23986, 3.75],
          [131.79115, 33.23996, 3.25],
          [131.79092, 33.23998, 3.0],
          [131.79032, 33.23997, 3.5],
          [131.78936, 33.23985, 4.0],
          [131.78844, 33.23975, 3.0],
          [131.78714, 33.23960, 4.25],
          [131.78654, 33.23954, 5.5],
          [131.78583, 33.23946, 7.5],
          [131.78425, 33.23948, 11.5],
          [131.78400, 33.23945, 12.0],
          [131.78378, 33.23939, 12.5],
          [131.78310, 33.23911, 13.75],
          [131.78286, 33.23903, 14.75],
          [131.78262, 33.23900, 15.5],
          [131.78014, 33.23893, 17.75],
          [131.77975, 33.23890, 16.25],
          [131.77953, 33.23885, 15.5],
          [131.77912, 33.23872, 13.75],
          [131.77875, 33.23856, 12.25],
          [131.77831, 33.23868, 11.5],
          [131.77778, 33.23886, 10.0],
          [131.77765, 33.23892, 9.75],
          [131.77752, 33.23901, 9.5],
          [131.77731, 33.23929, 9.5],
          [131.77725, 33.23935, 9.25],
          [131.77716, 33.23937, 8.75],
          [131.77686, 33.23941, 7.0],
          [131.77667, 33.23946, 6.0],
          [131.77627, 33.23958, 5.75],
          [131.77614, 33.23957, 5.5],
          [131.77523, 33.23944, 5.25],
          [131.77476, 33.23939, 5.0],
          [131.77343, 33.23913, 4.75],
          [131.77337, 33.23912, 4.75],
          [131.77313, 33.23906, 5.0],
          [131.77309, 33.23906, 5.0],
          [131.77287, 33.23919, 5.0],
          [131.77162, 33.23948, 3.0],
          [131.77132, 33.23961, 3.75],
          [131.77106, 33.23978, 4.75],
          [131.77093, 33.23995, 4.5],
          [131.77085, 33.24013, 4.5],
          [131.77077, 33.24040, 4.5],
          [131.77074, 33.24051, 4.5],
          [131.76966, 33.24028, 4.25],
          [131.76925, 33.24022, 4.25],
          [131.76884, 33.24018, 4.25],
          [131.76849, 33.24015, 4.25],
          [131.76738, 33.24010, 4.0],
          [131.76360, 33.23993, 3.5],
          [131.76207, 33.23987, 3.5],
          [131.76165, 33.23986, 3.5],
          [131.76125, 33.23986, 3.75],
          [131.76063, 33.23986, 4.5],
          [131.75956, 33.23989, 5.25],
          [131.75782, 33.24001, 6.5],
          [131.75665, 33.24013, 7.5],
          [131.75581, 33.24024, 8.25],
          [131.75451, 33.24044, 9.25],
          [131.75357, 33.24063, 10.0],
          [131.75325, 33.24070, 10.25],
          [131.75239, 33.24089, 11.0],
          [131.75122, 33.24119, 12.0],
          [131.75112, 33.24122, 12.0],
          [131.75086, 33.24129, 16.0],
          [131.75006, 33.24152, 9.75],
          [131.74850, 33.24204, 8.5],
          [131.74553, 33.24315, 14.0],
          [131.74477, 33.24344, 12.75],
          [131.74465, 33.24349, 11.5],
          [131.74395, 33.24374, 7.5],
          [131.74266, 33.24421, 8.25],
          [131.74171, 33.24458, 9.75],
          [131.73963, 33.24535, 6.5],
          [131.73946, 33.24541, 6.25],
          [131.73934, 33.24546, 6.0],
          [131.73919, 33.24551, 5.75],
          [131.73578, 33.24679, 9.5],
          [131.73545, 33.24693, 6.5],
          [131.73497, 33.24716, 7.0],
          [131.73376, 33.24779, 8.25],
          [131.73284, 33.24827, 8.0],
          [131.73271, 33.24834, 7.75],
          [131.72982, 33.24985, 7.25],
          [131.72962, 33.24995, 7.25],
          [131.72870, 33.25043, 6.25],
          [131.72854, 33.25051, 6.75],
          [131.72558, 33.25206, 9.0],
          [131.72546, 33.25213, 8.75],
          [131.72536, 33.25218, 8.75],
          [131.72458, 33.25259, 7.25],
          [131.72383, 33.25295, 6.5],
          [131.72296, 33.25333, 8.5],
          [131.72215, 33.25366, 6.0],
          [131.72200, 33.25372, 5.5],
          [131.72094, 33.25410, 3.0],
          [131.72029, 33.25433, 7.0],
          [131.71984, 33.25446, 9.75],
          [131.71919, 33.25463, 9.75],
          [131.71876, 33.25473, 10.25],
          [131.71855, 33.25478, 10.75],
          [131.71834, 33.25483, 11.5],
          [131.71788, 33.25493, 10.5],
          [131.71736, 33.25502, 9.25],
          [131.71653, 33.25516, 6.0],
          [131.71592, 33.25525, 6.5],
          [131.71534, 33.25532, 7.0],
          [131.71453, 33.25540, 7.0],
          [131.71429, 33.25542, 7.0],
          [131.71343, 33.25548, 5.75],
          [131.71224, 33.25551, 4.5],
          [131.71157, 33.25551, 4.75],
          [131.71107, 33.25550, 4.5],
          [131.71056, 33.25548, 4.0],
          [131.70996, 33.25543, 3.5],
          [131.70802, 33.25531, 4.75],
          [131.70726, 33.25526, 5.25],
          [131.70691, 33.25524, 6.25],
          [131.70589, 33.25517, 5.0],
          [131.70575, 33.25516, 4.75],
          [131.70478, 33.25510, 3.25],
          [131.70458, 33.25508, 3.5],
          [131.70425, 33.25506, 3.75],
          [131.69869, 33.25469, 8.25],
          [131.69856, 33.25468, 8.25],
          [131.69839, 33.25467, 8.0],
          [131.69658, 33.25458, 7.25],
          [131.69482, 33.25447, 4.25],
          [131.69453, 33.25445, 3.5],
          [131.69413, 33.25442, 3.0],
          [131.69402, 33.25441, 2.75],
          [131.69173, 33.25435, 2.75],
          [131.68867, 33.25437, 2.75],
          [131.68755, 33.25439, 2.75],
          [131.68658, 33.25441, 2.75],
          [131.68619, 33.25439, 2.5],
          [131.68545, 33.25437, 2.75],
          [131.68485, 33.25437, 3.5],
          [131.68480, 33.25437, 3.5],
          [131.68335, 33.25438, 4.25],
          [131.68335, 33.25335, 3.75],
          [131.68335, 33.25325, 3.75],
          [131.68335, 33.25317, 3.5],
          [131.68334, 33.25234, 2.75],
          [131.68333, 33.25203, 2.75],
          [131.68331, 33.25176, 3.0],
          [131.68325, 33.25132, 3.0],
          [131.68231, 33.25135, 4.0],
          [131.68123, 33.25138, 3.25],
          [131.67996, 33.25142, 2.5],
          [131.67795, 33.25148, 3.5],
          [131.67751, 33.25142, 4.75],
          [131.67717, 33.25134, 5.0],
          [131.67628, 33.25099, 5.25],
          [131.67517, 33.25048, 5.5],
          [131.67494, 33.25040, 5.5],
          [131.67461, 33.25038, 5.75],
          [131.67426, 33.25037, 6.0],
          [131.67420, 33.25036, 5.75],
          [131.67203, 33.25029, 4.75],
          [131.67196, 33.25029, 4.5],
          [131.67158, 33.25027, 4.5],
          [131.66944, 33.25020, 4.5],
          [131.66901, 33.25015, 4.25],
          [131.66870, 33.25010, 3.75],
          [131.66825, 33.25000, 2.75],
          [131.66745, 33.24981, 2.25],
          [131.66612, 33.24941, 2.0],
          [131.66601, 33.24937, 1.75],
          [131.66551, 33.24922, 2.5],
          [131.66536, 33.24918, 3.25],
          [131.66425, 33.24885, 6.25],
          [131.66297, 33.24848, 3.0],
          [131.66218, 33.24831, 3.5],
          [131.66182, 33.24825, 4.5],
          [131.66114, 33.24816, 5.5],
          [131.66047, 33.24807, 6.0],
          [131.65893, 33.24788, 4.75],
          [131.65730, 33.24767, 5.0],
          [131.65592, 33.24749, 5.75],
          [131.65451, 33.24731, 5.5],
          [131.65384, 33.24723, 6.5],
          [131.65362, 33.24720, 7.0],
          [131.65291, 33.24711, 6.5],
          [131.65175, 33.24696, 5.25],
          [131.65058, 33.24681, 4.0],
          [131.64916, 33.24663, 3.0],
          [131.64769, 33.24644, 5.25],
          [131.64635, 33.24627, 4.25],
          [131.64570, 33.24619, 3.5],
          [131.64560, 33.24618, 3.5],
          [131.64501, 33.24610, 3.25],
          [131.64432, 33.24601, 4.0],
          [131.64413, 33.24599, 4.25],
          [131.64346, 33.24590, 5.5],
          [131.64257, 33.24579, 6.75],
          [131.64182, 33.24569, 5.5],
          [131.64133, 33.24563, 4.5],
          [131.64008, 33.24547, 3.75],
          [131.63873, 33.24530, 3.0],
          [131.63814, 33.24522, 3.5],
          [131.63775, 33.24386, 4.25],
          [131.63754, 33.24313, 5.5],
          [131.63743, 33.24275, 7.0],
          [131.63721, 33.24201, 8.0],
          [131.63719, 33.24192, 8.25],
          [131.63710, 33.24192, 8.25],
          [131.63625, 33.24199, 7.0],
          [131.63598, 33.24201, 6.25],
          [131.63564, 33.24205, 5.25],
          [131.63546, 33.24206, 5.25],
          [131.63523, 33.24208, 5.0],
          [131.63516, 33.24209, 5.0],
          [131.63471, 33.24213, 5.0],
          [131.63446, 33.24215, 5.25],
          [131.63431, 33.24217, 5.25],
          [131.63417, 33.24218, 5.25],
          [131.63359, 33.24223, 5.0],
          [131.63357, 33.24219, 5.0],
          [131.63356, 33.24217, 5.0],
          [131.63351, 33.24213, 5.0],
          [131.63324, 33.24193, 5.0],
          [131.63306, 33.24182, 5.0],
          [131.63280, 33.24167, 5.0],
          [131.63213, 33.24138, 4.75],
          [131.63212, 33.24137, 4.75],
          [131.63161, 33.24123, 4.75],
          [131.63137, 33.24115, 4.75],
          [131.63127, 33.24113, 4.75],
          [131.63114, 33.24113, 4.75],
          [131.63091, 33.24115, 4.75],
          [131.63034, 33.24119, 5.75],
          [131.63005, 33.24122, 6.25],
          [131.62970, 33.24125, 5.75],
          [131.62966, 33.24125, 5.5],
          [131.62948, 33.24123, 5.25],
          [131.62938, 33.24120, 5.0],
          [131.62925, 33.24117, 4.5],
          [131.62879, 33.24102, 3.25],
          [131.62870, 33.24099, 3.0],
          [131.62863, 33.24097, 2.75],
          [131.62806, 33.24079, 2.5],
          [131.62688, 33.24046, 5.25],
          [131.62569, 33.24009, 6.75],
          [131.62479, 33.23987, 7.25],
          [131.62467, 33.24003, 7.5],
          [131.62390, 33.23982, 6.5],
          [131.62378, 33.23979, 5.75],
          [131.62370, 33.23977, 5.0],
          [131.62058, 33.23895, 13.5],
          [131.62048, 33.23891, 14.5],
          [131.62037, 33.23889, 15.25],
          [131.62045, 33.23877, 15.0],
          [131.62045, 33.23869, 15.25],
          [131.62033, 33.23845, 16.0],
          [131.62025, 33.23828, 15.5],
          [131.62021, 33.23824, 15.0],
          [131.61972, 33.23813, 12.75],
          [131.61912, 33.23800, 9.5],
          [131.61885, 33.23794, 7.75],
          [131.61877, 33.23792, 7.25],
          [131.61803, 33.23777, 5.25],
          [131.61716, 33.23760, 5.75],
          [131.61697, 33.23755, 5.75],
          [131.61654, 33.23746, 5.75],
          [131.61647, 33.23745, 5.5],
          [131.61627, 33.23740, 5.25],
          [131.61580, 33.23737, 4.75],
          [131.61578, 33.23730, 4.75],
          [131.61579, 33.23636, 4.0],
          [131.61542, 33.23636, 5.5],
          [131.61538, 33.23636, 5.5],
          [131.61509, 33.23635, 6.75],
          [131.61395, 33.23634, 7.0],
          [131.61359, 33.23633, 7.0]
        ]
      }
    }
  ]
}
